{"type":"FeatureCollection","features":[{"type":"Feature","properties":{"name":"Tokyo","rank":0},"geometry":{"type":"Point","coordinates":[139.75,35.69]}},{"type":"Feature","properties":{"name":"Cairo","rank":1},"geometry":{"type":"Point","coordinates":[31.25,30.05]}},{"type":"Feature","properties":{"name":"Beijing","rank":2},"geometry":{"type":"Point","coordinates":[116.39,39.93]}},{"type":"Feature","properties":{"name":"Moscow","rank":3},"geometry":{"type":"Point","coordinates":[37.61,55.75]}},{"type":"Feature","properties":{"name":"Paris","rank":4},"geometry":{"type":"Point","coordinates":[2.33,48.87]}},{"type":"Feature","properties":{"name":"London","rank":5},"geometry":{"type":"Point","coordinates":[-0.12,51.5]}},{"type":"Feature","properties":{"name":"Cape Town","rank":6},"geometry":{"type":"Point","coordinates":[18.43,-33.92]}},{"type":"Feature","properties":{"name":"New York","rank":7},"geometry":{"type":"Point","coordinates":[-73.98,40.75]}},{"type":"Feature","properties":{"name":"Mumbai","rank":8},"geometry":{"type":"Point","coordinates":[72.86,19.02]}},{"type":"Feature","properties":{"name":"Rio de Janeiro","rank":9},"geometry":{"type":"Point","coordinates":[-43.23,-22.92]}},{"type":"Feature","properties":{"name":"Sydney","rank":10},"geometry":{"type":"Point","coordinates":[151.18,-33.92]}},{"type":"Feature","properties":{"name":"Santiago","rank":11},"geometry":{"type":"Point","coordinates":[-70.67,-33.45]}},{"type":"Feature","properties":{"name":"Nairobi","rank":12},"geometry":{"type":"Point","coordinates":[36.81,-1.28]}},{"type":"Feature","properties":{"name":"Shanghai","rank":13},"geometry":{"type":"Point","coordinates":[121.43,31.22]}},{"type":"Feature","properties":{"name":"Los Angeles","rank":14},"geometry":{"type":"Point","coordinates":[-118.18,33.99]}},{"type":"Feature","properties":{"name":"Lagos","rank":15},"geometry":{"type":"Point","coordinates":[3.39,6.45]}},{"type":"Feature","properties":{"name":"Mexico City","rank":16},"geometry":{"type":"Point","coordinates":[-99.13,19.44]}},{"type":"Feature","properties":{"name":"Buenos Aires","rank":17},"geometry":{"type":"Point","coordinates":[-58.4,-34.6]}},{"type":"Feature","properties":{"name":"Jakarta","rank":18},"geometry":{"type":"Point","coordinates":[106.83,-6.17]}},{"type":"Feature","properties":{"name":"Bogota","rank":19},"geometry":{"type":"Point","coordinates":[-74.09,4.6]}},{"type":"Feature","properties":{"name":"Singapore","rank":20},"geometry":{"type":"Point","coordinates":[103.85,1.29]}},{"type":"Feature","properties":{"name":"Washington, D.C.","rank":21},"geometry":{"type":"Point","coordinates":[-77.01,38.9]}},{"type":"Feature","properties":{"name":"New Delhi","rank":22},"geometry":{"type":"Point","coordinates":[77.2,28.6]}},{"type":"Feature","properties":{"name":"Miami","rank":23},"geometry":{"type":"Point","coordinates":[-80.23,25.79]}},{"type":"Feature","properties":{"name":"Toronto","rank":24},"geometry":{"type":"Point","coordinates":[-79.42,43.7]}},{"type":"Feature","properties":{"name":"Vancouver","rank":25},"geometry":{"type":"Point","coordinates":[-123.12,49.28]}},{"type":"Feature","properties":{"name":"Manila","rank":26},"geometry":{"type":"Point","coordinates":[120.98,14.61]}},{"type":"Feature","properties":{"name":"Berlin","rank":27},"geometry":{"type":"Point","coordinates":[13.4,52.52]}},{"type":"Feature","properties":{"name":"Rome","rank":28},"geometry":{"type":"Point","coordinates":[12.48,41.9]}},{"type":"Feature","properties":{"name":"San Francisco","rank":29},"geometry":{"type":"Point","coordinates":[-122.42,37.77]}},{"type":"Feature","properties":{"name":"Seoul","rank":30},"geometry":{"type":"Point","coordinates":[127,37.57]}},{"type":"Feature","properties":{"name":"Lima","rank":31},"geometry":{"type":"Point","coordinates":[-77.05,-12.05]}},{"type":"Feature","properties":{"name":"Tehran","rank":32},"geometry":{"type":"Point","coordinates":[51.42,35.67]}},{"type":"Feature","properties":{"name":"Kinshasa","rank":33},"geometry":{"type":"Point","coordinates":[15.31,-4.33]}},{"type":"Feature","properties":{"name":"Bangkok","rank":34},"geometry":{"type":"Point","coordinates":[100.51,13.75]}},{"type":"Feature","properties":{"name":"Madrid","rank":35},"geometry":{"type":"Point","coordinates":[-3.69,40.4]}},{"type":"Feature","properties":{"name":"Addis Ababa","rank":36},"geometry":{"type":"Point","coordinates":[38.7,9.04]}},{"type":"Feature","properties":{"name":"Caracas","rank":37},"geometry":{"type":"Point","coordinates":[-66.92,10.5]}},{"type":"Feature","properties":{"name":"Dakar","rank":38},"geometry":{"type":"Point","coordinates":[-17.48,14.72]}},{"type":"Feature","properties":{"name":"Stockholm","rank":39},"geometry":{"type":"Point","coordinates":[18.1,59.35]}},{"type":"Feature","properties":{"name":"Ottawa","rank":40},"geometry":{"type":"Point","coordinates":[-75.7,45.42]}},{"type":"Feature","properties":{"name":"São Paulo","rank":41},"geometry":{"type":"Point","coordinates":[-46.63,-23.56]}},{"type":"Feature","properties":{"name":"Ōsaka","rank":42},"geometry":{"type":"Point","coordinates":[135.46,34.75]}},{"type":"Feature","properties":{"name":"Istanbul","rank":43},"geometry":{"type":"Point","coordinates":[29.01,41.11]}},{"type":"Feature","properties":{"name":"Chicago","rank":44},"geometry":{"type":"Point","coordinates":[-87.75,41.83]}},{"type":"Feature","properties":{"name":"Hong Kong","rank":45},"geometry":{"type":"Point","coordinates":[114.18,22.31]}},{"type":"Feature","properties":{"name":"Atlanta","rank":46},"geometry":{"type":"Point","coordinates":[-84.4,33.83]}},{"type":"Feature","properties":{"name":"Houston","rank":47},"geometry":{"type":"Point","coordinates":[-95.34,29.82]}},{"type":"Feature","properties":{"name":"Melbourne","rank":48},"geometry":{"type":"Point","coordinates":[144.97,-37.82]}},{"type":"Feature","properties":{"name":"Chengdu","rank":49},"geometry":{"type":"Point","coordinates":[104.07,30.67]}},{"type":"Feature","properties":{"name":"Johannesburg","rank":50},"geometry":{"type":"Point","coordinates":[28.03,-26.17]}},{"type":"Feature","properties":{"name":"Auckland","rank":51},"geometry":{"type":"Point","coordinates":[174.76,-36.85]}},{"type":"Feature","properties":{"name":"Taipei","rank":52},"geometry":{"type":"Point","coordinates":[121.57,25.04]}},{"type":"Feature","properties":{"name":"Baghdad","rank":53},"geometry":{"type":"Point","coordinates":[44.39,33.34]}},{"type":"Feature","properties":{"name":"Riyadh","rank":54},"geometry":{"type":"Point","coordinates":[46.77,24.64]}},{"type":"Feature","properties":{"name":"Brasília","rank":55},"geometry":{"type":"Point","coordinates":[-47.92,-15.78]}},{"type":"Feature","properties":{"name":"Kabul","rank":56},"geometry":{"type":"Point","coordinates":[69.18,34.52]}},{"type":"Feature","properties":{"name":"Athens","rank":57},"geometry":{"type":"Point","coordinates":[23.73,37.99]}},{"type":"Feature","properties":{"name":"Kiev","rank":58},"geometry":{"type":"Point","coordinates":[30.51,50.44]}},{"type":"Feature","properties":{"name":"Vienna","rank":59},"geometry":{"type":"Point","coordinates":[16.36,48.2]}},{"type":"Feature","properties":{"name":"Tashkent","rank":60},"geometry":{"type":"Point","coordinates":[69.29,41.31]}},{"type":"Feature","properties":{"name":"Amsterdam","rank":61},"geometry":{"type":"Point","coordinates":[4.91,52.35]}},{"type":"Feature","properties":{"name":"Jerusalem","rank":62},"geometry":{"type":"Point","coordinates":[35.21,31.78]}},{"type":"Feature","properties":{"name":"Reykjavík","rank":63},"geometry":{"type":"Point","coordinates":[-21.95,64.15]}},{"type":"Feature","properties":{"name":"Kolkata","rank":64},"geometry":{"type":"Point","coordinates":[88.32,22.5]}},{"type":"Feature","properties":{"name":"Bangalore","rank":65},"geometry":{"type":"Point","coordinates":[77.56,12.97]}},{"type":"Feature","properties":{"name":"Monterrey","rank":66},"geometry":{"type":"Point","coordinates":[-100.33,25.67]}},{"type":"Feature","properties":{"name":"Casablanca","rank":67},"geometry":{"type":"Point","coordinates":[-7.62,33.6]}},{"type":"Feature","properties":{"name":"Denver","rank":68},"geometry":{"type":"Point","coordinates":[-104.99,39.74]}},{"type":"Feature","properties":{"name":"Ürümqi","rank":69},"geometry":{"type":"Point","coordinates":[87.57,43.81]}},{"type":"Feature","properties":{"name":"Dubai","rank":70},"geometry":{"type":"Point","coordinates":[55.28,25.23]}},{"type":"Feature","properties":{"name":"Geneva","rank":71},"geometry":{"type":"Point","coordinates":[6.14,46.21]}},{"type":"Feature","properties":{"name":"Dhaka","rank":72},"geometry":{"type":"Point","coordinates":[90.41,23.73]}},{"type":"Feature","properties":{"name":"Luanda","rank":73},"geometry":{"type":"Point","coordinates":[13.23,-8.84]}},{"type":"Feature","properties":{"name":"Khartoum","rank":74},"geometry":{"type":"Point","coordinates":[32.53,15.59]}},{"type":"Feature","properties":{"name":"Hanoi","rank":75},"geometry":{"type":"Point","coordinates":[105.85,21.04]}},{"type":"Feature","properties":{"name":"Abidjan","rank":76},"geometry":{"type":"Point","coordinates":[-4.04,5.32]}},{"type":"Feature","properties":{"name":"Ankara","rank":77},"geometry":{"type":"Point","coordinates":[32.86,39.93]}},{"type":"Feature","properties":{"name":"Algiers","rank":78},"geometry":{"type":"Point","coordinates":[3.05,36.77]}},{"type":"Feature","properties":{"name":"Dar es Salaam","rank":79},"geometry":{"type":"Point","coordinates":[39.27,-6.8]}},{"type":"Feature","properties":{"name":"Lisbon","rank":80},"geometry":{"type":"Point","coordinates":[-9.15,38.72]}},{"type":"Feature","properties":{"name":"Tripoli","rank":81},"geometry":{"type":"Point","coordinates":[13.18,32.89]}},{"type":"Feature","properties":{"name":"Havana","rank":82},"geometry":{"type":"Point","coordinates":[-82.37,23.13]}},{"type":"Feature","properties":{"name":"Santo Domingo","rank":83},"geometry":{"type":"Point","coordinates":[-69.9,18.47]}},{"type":"Feature","properties":{"name":"Accra","rank":84},"geometry":{"type":"Point","coordinates":[-0.22,5.55]}},{"type":"Feature","properties":{"name":"Kuwait","rank":85},"geometry":{"type":"Point","coordinates":[47.98,29.37]}},{"type":"Feature","properties":{"name":"Sanaa","rank":86},"geometry":{"type":"Point","coordinates":[44.2,15.36]}},{"type":"Feature","properties":{"name":"Bucharest","rank":87},"geometry":{"type":"Point","coordinates":[26.1,44.44]}},{"type":"Feature","properties":{"name":"Asunción","rank":88},"geometry":{"type":"Point","coordinates":[-57.64,-25.29]}},{"type":"Feature","properties":{"name":"Warsaw","rank":89},"geometry":{"type":"Point","coordinates":[21,52.25]}},{"type":"Feature","properties":{"name":"Quito","rank":90},"geometry":{"type":"Point","coordinates":[-78.5,-0.21]}},{"type":"Feature","properties":{"name":"La Paz","rank":91},"geometry":{"type":"Point","coordinates":[-68.15,-16.5]}},{"type":"Feature","properties":{"name":"Abuja","rank":92},"geometry":{"type":"Point","coordinates":[7.53,9.09]}},{"type":"Feature","properties":{"name":"Harare","rank":93},"geometry":{"type":"Point","coordinates":[31.04,-17.82]}},{"type":"Feature","properties":{"name":"Montevideo","rank":94},"geometry":{"type":"Point","coordinates":[-56.17,-34.86]}},{"type":"Feature","properties":{"name":"Bamako","rank":95},"geometry":{"type":"Point","coordinates":[-8,12.65]}},{"type":"Feature","properties":{"name":"Kuala Lumpur","rank":96},"geometry":{"type":"Point","coordinates":[101.7,3.17]}},{"type":"Feature","properties":{"name":"Lusaka","rank":97},"geometry":{"type":"Point","coordinates":[28.28,-15.41]}},{"type":"Feature","properties":{"name":"Helsinki","rank":98},"geometry":{"type":"Point","coordinates":[24.93,60.18]}},{"type":"Feature","properties":{"name":"Mogadishu","rank":99},"geometry":{"type":"Point","coordinates":[45.36,2.07]}},{"type":"Feature","properties":{"name":"København","rank":100},"geometry":{"type":"Point","coordinates":[12.56,55.68]}},{"type":"Feature","properties":{"name":"Dublin","rank":101},"geometry":{"type":"Point","coordinates":[-6.25,53.34]}},{"type":"Feature","properties":{"name":"Monrovia","rank":102},"geometry":{"type":"Point","coordinates":[-10.8,6.31]}},{"type":"Feature","properties":{"name":"Ulaanbaatar","rank":103},"geometry":{"type":"Point","coordinates":[106.91,47.92]}},{"type":"Feature","properties":{"name":"Oslo","rank":104},"geometry":{"type":"Point","coordinates":[10.75,59.92]}},{"type":"Feature","properties":{"name":"Riga","rank":105},"geometry":{"type":"Point","coordinates":[24.1,56.95]}},{"type":"Feature","properties":{"name":"Wellington","rank":106},"geometry":{"type":"Point","coordinates":[174.78,-41.3]}},{"type":"Feature","properties":{"name":"Astana","rank":107},"geometry":{"type":"Point","coordinates":[71.43,51.18]}},{"type":"Feature","properties":{"name":"Canberra","rank":108},"geometry":{"type":"Point","coordinates":[149.13,-35.28]}},{"type":"Feature","properties":{"name":"Port Moresby","rank":109},"geometry":{"type":"Point","coordinates":[147.19,-9.46]}},{"type":"Feature","properties":{"name":"Georgetown","rank":110},"geometry":{"type":"Point","coordinates":[-58.17,6.8]}},{"type":"Feature","properties":{"name":"Port Vila","rank":111},"geometry":{"type":"Point","coordinates":[168.32,-17.73]}},{"type":"Feature","properties":{"name":"Rangoon","rank":112},"geometry":{"type":"Point","coordinates":[96.16,16.79]}},{"type":"Feature","properties":{"name":"Tel Aviv-Yafo","rank":113},"geometry":{"type":"Point","coordinates":[34.77,32.08]}},{"type":"Feature","properties":{"name":"Pyongyang","rank":114},"geometry":{"type":"Point","coordinates":[125.75,39.02]}},{"type":"Feature","properties":{"name":"Damascus","rank":115},"geometry":{"type":"Point","coordinates":[36.3,33.5]}},{"type":"Feature","properties":{"name":"Brussels","rank":116},"geometry":{"type":"Point","coordinates":[4.33,50.84]}},{"type":"Feature","properties":{"name":"Budapest","rank":117},"geometry":{"type":"Point","coordinates":[19.08,47.5]}},{"type":"Feature","properties":{"name":"Prague","rank":118},"geometry":{"type":"Point","coordinates":[14.46,50.09]}},{"type":"Feature","properties":{"name":"Sucre","rank":119},"geometry":{"type":"Point","coordinates":[-65.26,-19.04]}},{"type":"Feature","properties":{"name":"Tunis","rank":120},"geometry":{"type":"Point","coordinates":[10.18,36.8]}},{"type":"Feature","properties":{"name":"Baku","rank":121},"geometry":{"type":"Point","coordinates":[49.86,40.4]}},{"type":"Feature","properties":{"name":"Port-au-Prince","rank":122},"geometry":{"type":"Point","coordinates":[-72.34,18.54]}},{"type":"Feature","properties":{"name":"Beirut","rank":123},"geometry":{"type":"Point","coordinates":[35.51,33.87]}},{"type":"Feature","properties":{"name":"Minsk","rank":124},"geometry":{"type":"Point","coordinates":[27.56,53.9]}},{"type":"Feature","properties":{"name":"Rabat","rank":125},"geometry":{"type":"Point","coordinates":[-6.84,34.03]}},{"type":"Feature","properties":{"name":"Antananarivo","rank":126},"geometry":{"type":"Point","coordinates":[47.51,-18.91]}},{"type":"Feature","properties":{"name":"Yaounde","rank":127},"geometry":{"type":"Point","coordinates":[11.51,3.87]}},{"type":"Feature","properties":{"name":"Conakry","rank":128},"geometry":{"type":"Point","coordinates":[-13.68,9.53]}},{"type":"Feature","properties":{"name":"Phnom Penh","rank":129},"geometry":{"type":"Point","coordinates":[104.91,11.55]}},{"type":"Feature","properties":{"name":"Lomé","rank":130},"geometry":{"type":"Point","coordinates":[1.22,6.13]}},{"type":"Feature","properties":{"name":"Maputo","rank":131},"geometry":{"type":"Point","coordinates":[32.59,-25.95]}},{"type":"Feature","properties":{"name":"San Salvador","rank":132},"geometry":{"type":"Point","coordinates":[-89.2,13.71]}},{"type":"Feature","properties":{"name":"Kampala","rank":133},"geometry":{"type":"Point","coordinates":[32.58,0.32]}},{"type":"Feature","properties":{"name":"Brazzaville","rank":134},"geometry":{"type":"Point","coordinates":[15.28,-4.26]}},{"type":"Feature","properties":{"name":"Pretoria","rank":135},"geometry":{"type":"Point","coordinates":[28.23,-25.7]}},{"type":"Feature","properties":{"name":"San José","rank":136},"geometry":{"type":"Point","coordinates":[-84.09,9.94]}},{"type":"Feature","properties":{"name":"Panama City","rank":137},"geometry":{"type":"Point","coordinates":[-79.53,8.97]}},{"type":"Feature","properties":{"name":"Sofia","rank":138},"geometry":{"type":"Point","coordinates":[23.31,42.69]}},{"type":"Feature","properties":{"name":"Ouagadougou","rank":139},"geometry":{"type":"Point","coordinates":[-1.53,12.37]}},{"type":"Feature","properties":{"name":"Yerevan","rank":140},"geometry":{"type":"Point","coordinates":[44.51,40.18]}},{"type":"Feature","properties":{"name":"Tbilisi","rank":141},"geometry":{"type":"Point","coordinates":[44.79,41.73]}},{"type":"Feature","properties":{"name":"Belgrade","rank":142},"geometry":{"type":"Point","coordinates":[20.47,44.82]}},{"type":"Feature","properties":{"name":"Dushanbe","rank":143},"geometry":{"type":"Point","coordinates":[68.77,38.56]}},{"type":"Feature","properties":{"name":"Amman","rank":144},"geometry":{"type":"Point","coordinates":[35.93,31.95]}},{"type":"Feature","properties":{"name":"Guatemala","rank":145},"geometry":{"type":"Point","coordinates":[-90.53,14.62]}},{"type":"Feature","properties":{"name":"Ndjamena","rank":146},"geometry":{"type":"Point","coordinates":[15.05,12.12]}},{"type":"Feature","properties":{"name":"Tegucigalpa","rank":147},"geometry":{"type":"Point","coordinates":[-87.22,14.1]}},{"type":"Feature","properties":{"name":"Kingston","rank":148},"geometry":{"type":"Point","coordinates":[-76.77,17.98]}},{"type":"Feature","properties":{"name":"Naypyidaw","rank":149},"geometry":{"type":"Point","coordinates":[96.12,19.77]}},{"type":"Feature","properties":{"name":"Managua","rank":150},"geometry":{"type":"Point","coordinates":[-86.27,12.15]}},{"type":"Feature","properties":{"name":"Niamey","rank":151},"geometry":{"type":"Point","coordinates":[2.11,13.52]}},{"type":"Feature","properties":{"name":"Tirana","rank":152},"geometry":{"type":"Point","coordinates":[19.82,41.33]}},{"type":"Feature","properties":{"name":"Kathmandu","rank":153},"geometry":{"type":"Point","coordinates":[85.31,27.72]}},{"type":"Feature","properties":{"name":"Bishkek","rank":154},"geometry":{"type":"Point","coordinates":[74.58,42.88]}},{"type":"Feature","properties":{"name":"Bangui","rank":155},"geometry":{"type":"Point","coordinates":[18.56,4.37]}},{"type":"Feature","properties":{"name":"Freetown","rank":156},"geometry":{"type":"Point","coordinates":[-13.24,8.47]}},{"type":"Feature","properties":{"name":"Islamabad","rank":157},"geometry":{"type":"Point","coordinates":[73.16,33.7]}},{"type":"Feature","properties":{"name":"Cotonou","rank":158},"geometry":{"type":"Point","coordinates":[2.52,6.4]}},{"type":"Feature","properties":{"name":"Vientiane","rank":159},"geometry":{"type":"Point","coordinates":[102.6,17.97]}},{"type":"Feature","properties":{"name":"Nouakchott","rank":160},"geometry":{"type":"Point","coordinates":[-15.98,18.09]}},{"type":"Feature","properties":{"name":"Muscat","rank":161},"geometry":{"type":"Point","coordinates":[58.59,23.61]}},{"type":"Feature","properties":{"name":"Ashgabat","rank":162},"geometry":{"type":"Point","coordinates":[58.38,37.95]}},{"type":"Feature","properties":{"name":"Zagreb","rank":163},"geometry":{"type":"Point","coordinates":[16,45.8]}},{"type":"Feature","properties":{"name":"Sarajevo","rank":164},"geometry":{"type":"Point","coordinates":[18.38,43.85]}},{"type":"Feature","properties":{"name":"Chișinău","rank":165},"geometry":{"type":"Point","coordinates":[28.86,47.01]}},{"type":"Feature","properties":{"name":"Lilongwe","rank":166},"geometry":{"type":"Point","coordinates":[33.78,-13.98]}},{"type":"Feature","properties":{"name":"Asmara","rank":167},"geometry":{"type":"Point","coordinates":[38.93,15.33]}},{"type":"Feature","properties":{"name":"Abu Dhabi","rank":168},"geometry":{"type":"Point","coordinates":[54.37,24.47]}},{"type":"Feature","properties":{"name":"Libreville","rank":169},"geometry":{"type":"Point","coordinates":[9.46,0.39]}},{"type":"Feature","properties":{"name":"Vilnius","rank":170},"geometry":{"type":"Point","coordinates":[25.32,54.68]}},{"type":"Feature","properties":{"name":"Hargeysa","rank":171},"geometry":{"type":"Point","coordinates":[44.07,9.56]}},{"type":"Feature","properties":{"name":"Bloemfontein","rank":172},"geometry":{"type":"Point","coordinates":[26.23,-29.12]}},{"type":"Feature","properties":{"name":"Bissau","rank":173},"geometry":{"type":"Point","coordinates":[-15.6,11.87]}},{"type":"Feature","properties":{"name":"Tallinn","rank":174},"geometry":{"type":"Point","coordinates":[24.73,59.43]}},{"type":"Feature","properties":{"name":"Valletta","rank":175},"geometry":{"type":"Point","coordinates":[14.51,35.9]}},{"type":"Feature","properties":{"name":"Maseru","rank":176},"geometry":{"type":"Point","coordinates":[27.48,-29.32]}},{"type":"Feature","properties":{"name":"Bandar Seri Begawan","rank":177},"geometry":{"type":"Point","coordinates":[114.93,4.88]}},{"type":"Feature","properties":{"name":"Windhoek","rank":178},"geometry":{"type":"Point","coordinates":[17.08,-22.57]}},{"type":"Feature","properties":{"name":"Paramaribo","rank":179},"geometry":{"type":"Point","coordinates":[-55.17,5.84]}},{"type":"Feature","properties":{"name":"Dili","rank":180},"geometry":{"type":"Point","coordinates":[125.58,-8.56]}},{"type":"Feature","properties":{"name":"Nassau","rank":181},"geometry":{"type":"Point","coordinates":[-77.35,25.08]}},{"type":"Feature","properties":{"name":"Nicosia","rank":182},"geometry":{"type":"Point","coordinates":[33.37,35.17]}},{"type":"Feature","properties":{"name":"Colombo","rank":183},"geometry":{"type":"Point","coordinates":[79.86,6.93]}},{"type":"Feature","properties":{"name":"Gaborone","rank":184},"geometry":{"type":"Point","coordinates":[25.91,-24.65]}},{"type":"Feature","properties":{"name":"Yamoussoukro","rank":185},"geometry":{"type":"Point","coordinates":[-5.28,6.82]}},{"type":"Feature","properties":{"name":"Suva","rank":186},"geometry":{"type":"Point","coordinates":[178.44,-18.13]}},{"type":"Feature","properties":{"name":"Malabo","rank":187},"geometry":{"type":"Point","coordinates":[8.78,3.75]}},{"type":"Feature","properties":{"name":"Praia","rank":188},"geometry":{"type":"Point","coordinates":[-23.52,14.92]}},{"type":"Feature","properties":{"name":"Malé","rank":189},"geometry":{"type":"Point","coordinates":[73.5,4.17]}},{"type":"Feature","properties":{"name":"Thimphu","rank":190},"geometry":{"type":"Point","coordinates":[89.64,27.47]}},{"type":"Feature","properties":{"name":"São Tomé","rank":191},"geometry":{"type":"Point","coordinates":[6.73,0.33]}},{"type":"Feature","properties":{"name":"Honiara","rank":192},"geometry":{"type":"Point","coordinates":[159.95,-9.44]}},{"type":"Feature","properties":{"name":"Apia","rank":193},"geometry":{"type":"Point","coordinates":[-171.74,-13.84]}},{"type":"Feature","properties":{"name":"Nukualofa","rank":194},"geometry":{"type":"Point","coordinates":[-175.22,-21.14]}},{"type":"Feature","properties":{"name":"Victoria","rank":195},"geometry":{"type":"Point","coordinates":[55.45,-4.62]}},{"type":"Feature","properties":{"name":"Belmopan","rank":196},"geometry":{"type":"Point","coordinates":[-88.77,17.25]}},{"type":"Feature","properties":{"name":"Valparaíso","rank":197},"geometry":{"type":"Point","coordinates":[-71.62,-33.05]}},{"type":"Feature","properties":{"name":"Kigali","rank":198},"geometry":{"type":"Point","coordinates":[30.06,-1.95]}},{"type":"Feature","properties":{"name":"Bratislava","rank":199},"geometry":{"type":"Point","coordinates":[17.12,48.15]}},{"type":"Feature","properties":{"name":"Port-of-Spain","rank":200},"geometry":{"type":"Point","coordinates":[-61.52,10.65]}},{"type":"Feature","properties":{"name":"Kingstown","rank":201},"geometry":{"type":"Point","coordinates":[-61.21,13.15]}},{"type":"Feature","properties":{"name":"Monaco","rank":202},"geometry":{"type":"Point","coordinates":[7.41,43.74]}},{"type":"Feature","properties":{"name":"Saint John's","rank":203},"geometry":{"type":"Point","coordinates":[-61.85,17.12]}},{"type":"Feature","properties":{"name":"Saint George's","rank":204},"geometry":{"type":"Point","coordinates":[-61.74,12.05]}},{"type":"Feature","properties":{"name":"Roseau","rank":205},"geometry":{"type":"Point","coordinates":[-61.39,15.3]}},{"type":"Feature","properties":{"name":"Kyoto","rank":206},"geometry":{"type":"Point","coordinates":[135.75,35.03]}},{"type":"Feature","properties":{"name":"Juba","rank":207},"geometry":{"type":"Point","coordinates":[31.58,4.83]}},{"type":"Feature","properties":{"name":"Doha","rank":208},"geometry":{"type":"Point","coordinates":[51.53,25.29]}},{"type":"Feature","properties":{"name":"Djibouti","rank":209},"geometry":{"type":"Point","coordinates":[43.15,11.6]}},{"type":"Feature","properties":{"name":"Port Louis","rank":210},"geometry":{"type":"Point","coordinates":[57.5,-20.17]}},{"type":"Feature","properties":{"name":"Manama","rank":211},"geometry":{"type":"Point","coordinates":[50.58,26.24]}},{"type":"Feature","properties":{"name":"Skopje","rank":212},"geometry":{"type":"Point","coordinates":[21.43,42]}},{"type":"Feature","properties":{"name":"Pristina","rank":213},"geometry":{"type":"Point","coordinates":[21.17,42.67]}},{"type":"Feature","properties":{"name":"Bujumbura","rank":214},"geometry":{"type":"Point","coordinates":[29.36,-3.38]}},{"type":"Feature","properties":{"name":"Ljubljana","rank":215},"geometry":{"type":"Point","coordinates":[14.51,46.06]}},{"type":"Feature","properties":{"name":"Bern","rank":216},"geometry":{"type":"Point","coordinates":[7.47,46.92]}},{"type":"Feature","properties":{"name":"Bridgetown","rank":217},"geometry":{"type":"Point","coordinates":[-59.62,13.1]}},{"type":"Feature","properties":{"name":"Podgorica","rank":218},"geometry":{"type":"Point","coordinates":[19.27,42.47]}},{"type":"Feature","properties":{"name":"Mbabane","rank":219},"geometry":{"type":"Point","coordinates":[31.13,-26.32]}},{"type":"Feature","properties":{"name":"Banjul","rank":220},"geometry":{"type":"Point","coordinates":[-16.59,13.45]}},{"type":"Feature","properties":{"name":"Castries","rank":221},"geometry":{"type":"Point","coordinates":[-61,14]}},{"type":"Feature","properties":{"name":"Basseterre","rank":222},"geometry":{"type":"Point","coordinates":[-62.72,17.3]}},{"type":"Feature","properties":{"name":"The Hague","rank":223},"geometry":{"type":"Point","coordinates":[4.27,52.08]}},{"type":"Feature","properties":{"name":"Baguio City","rank":224},"geometry":{"type":"Point","coordinates":[120.57,16.43]}},{"type":"Feature","properties":{"name":"Porto-Novo","rank":225},"geometry":{"type":"Point","coordinates":[2.62,6.48]}},{"type":"Feature","properties":{"name":"Dodoma","rank":226},"geometry":{"type":"Point","coordinates":[35.75,-6.18]}},{"type":"Feature","properties":{"name":"Laayoune","rank":227},"geometry":{"type":"Point","coordinates":[-13.2,27.15]}},{"type":"Feature","properties":{"name":"Sri Jawewardenepura Kotte","rank":228},"geometry":{"type":"Point","coordinates":[79.95,6.9]}},{"type":"Feature","properties":{"name":"Putrajaya","rank":229},"geometry":{"type":"Point","coordinates":[101.7,2.91]}},{"type":"Feature","properties":{"name":"Moroni","rank":230},"geometry":{"type":"Point","coordinates":[43.24,-11.7]}},{"type":"Feature","properties":{"name":"Luxembourg","rank":231},"geometry":{"type":"Point","coordinates":[6.13,49.61]}},{"type":"Feature","properties":{"name":"Andorra","rank":232},"geometry":{"type":"Point","coordinates":[1.52,42.5]}},{"type":"Feature","properties":{"name":"Tarawa","rank":233},"geometry":{"type":"Point","coordinates":[173.02,1.34]}},{"type":"Feature","properties":{"name":"Majuro","rank":234},"geometry":{"type":"Point","coordinates":[171.38,7.1]}},{"type":"Feature","properties":{"name":"Melekeok","rank":235},"geometry":{"type":"Point","coordinates":[134.63,7.49]}},{"type":"Feature","properties":{"name":"Funafuti","rank":236},"geometry":{"type":"Point","coordinates":[179.22,-8.52]}},{"type":"Feature","properties":{"name":"Palikir","rank":237},"geometry":{"type":"Point","coordinates":[158.15,6.92]}},{"type":"Feature","properties":{"name":"Lobamba","rank":238},"geometry":{"type":"Point","coordinates":[31.2,-26.47]}},{"type":"Feature","properties":{"name":"Bir Lehlou","rank":239},"geometry":{"type":"Point","coordinates":[-9.65,26.12]}},{"type":"Feature","properties":{"name":"San Marino","rank":240},"geometry":{"type":"Point","coordinates":[12.44,43.94]}},{"type":"Feature","properties":{"name":"Vaduz","rank":241},"geometry":{"type":"Point","coordinates":[9.52,47.13]}},{"type":"Feature","properties":{"name":"Vatican City","rank":242},"geometry":{"type":"Point","coordinates":[12.45,41.9]}}]}