{"type":"FeatureCollection","features":[{"type":"Feature","properties":{},"geometry":{"type":"MultiLineString","coordinates":[[[-53.94,-27.16],[-53.85,-27.16],[-53.8,-27.16],[-53.72,-27.16],[-53.67,-27.17],[-53.66,-27.2],[-53.62,-27.21],[-53.54,-27.2],[-53.5,-27.17],[-53.49,-27.13],[-53.46,-27.1],[-53.4,-27.08],[-53.35,-27.08],[-53.3,-27.1],[-53.26,-27.16],[-53.23,-27.17],[-53.18,-27.15],[-53.13,-27.14],[-53.1,-27.15],[-53.07,-27.14],[-53.03,-27.14],[-52.99,-27.16],[-52.95,-27.18],[-52.9,-27.18],[-52.83,-27.19],[-52.74,-27.25],[-52.64,-27.26],[-52.51,-27.23],[-52.41,-27.24],[-52.35,-27.28],[-52.3,-27.28],[-52.26,-27.28],[-52.23,-27.29],[-52.19,-27.28],[-52.14,-27.28],[-52.06,-27.31],[-51.98,-27.38],[-51.91,-27.47],[-51.87,-27.51],[-51.75,-27.51],[-51.7,-27.49],[-51.64,-27.5],[-51.58,-27.55],[-51.53,-27.57],[-51.49,-27.56],[-51.41,-27.61],[-51.29,-27.72],[-51.19,-27.78],[-51.12,-27.81],[-50.97,-27.96],[-50.74,-28.24],[-50.58,-28.39],[-50.45,-28.42],[-50.23,-28.47],[-50.15,-28.47],[-50.14,-28.45],[-50.07,-28.44],[-49.94,-28.45],[-49.84,-28.47],[-49.74,-28.51],[-49.71,-28.53],[-49.7,-28.6],[-49.8,-28.62],[-49.85,-28.7],[-49.95,-28.79],[-49.94,-28.95],[-50.01,-29.1],[-50.07,-29.09],[-50.16,-29.2],[-50.17,-29.28],[-50.05,-29.36],[-50.03,-29.32],[-50.08,-29.24],[-49.95,-29.2],[-49.87,-29.22],[-49.82,-29.27],[-49.71,-29.32]],[[-38.22,-9.35],[-38.15,-9.27],[-38.09,-9.19],[-37.97,-9.14],[-37.82,-8.98],[-37.81,-8.9],[-37.75,-8.86],[-37.68,-8.98],[-37.63,-8.98],[-37.52,-8.95],[-37.47,-9],[-37.39,-9.04],[-37.18,-9.24],[-37,-9.31],[-36.94,-9.36],[-36.9,-9.29],[-36.83,-9.26],[-36.58,-9.29],[-36.44,-9.21],[-36.35,-9.2],[-36.27,-9.14],[-36.24,-9.09],[-36.12,-9.02],[-36.12,-8.97],[-36.02,-8.9],[-35.97,-8.91],[-35.88,-8.87],[-35.8,-8.87],[-35.72,-8.92],[-35.61,-8.86],[-35.47,-8.83],[-35.39,-8.88],[-35.3,-8.89],[-35.15,-8.91]],[[-38.7,-7.62],[-38.82,-7.66],[-38.86,-7.7],[-38.97,-7.85],[-39,-7.82],[-39.07,-7.86],[-39.11,-7.75],[-39.24,-7.68],[-39.31,-7.62],[-39.35,-7.55],[-39.53,-7.48],[-39.65,-7.37],[-39.85,-7.35],[-39.95,-7.36],[-40.07,-7.41],[-40.17,-7.42],[-40.26,-7.39],[-40.54,-7.39]],[[-34.81,-7.57],[-34.98,-7.51],[-35.07,-7.41],[-35.27,-7.38],[-35.37,-7.46],[-35.5,-7.45],[-35.56,-7.66],[-35.68,-7.71],[-35.71,-7.71],[-35.84,-7.74],[-35.89,-7.73],[-35.93,-7.84],[-35.97,-7.82],[-36.07,-7.82],[-36.12,-7.78],[-36.17,-7.82],[-36.22,-7.78],[-36.27,-7.82],[-36.34,-7.81],[-36.42,-7.82],[-36.45,-7.91],[-36.57,-7.92],[-36.66,-8.01],[-36.63,-8.08],[-36.78,-8.22],[-36.83,-8.23],[-36.96,-8.28],[-37.06,-8.23],[-37.13,-8.16],[-37.15,-7.98],[-37.21,-7.96],[-37.34,-8],[-37.23,-7.82],[-37.17,-7.76],[-37.21,-7.65],[-37.2,-7.57],[-37.02,-7.51],[-37.02,-7.4],[-37.15,-7.35],[-37.25,-7.27],[-37.35,-7.3],[-37.38,-7.35],[-37.44,-7.35],[-37.55,-7.48],[-37.71,-7.55],[-37.79,-7.64],[-37.9,-7.69],[-37.98,-7.77],[-38.06,-7.76],[-38.09,-7.82],[-38.15,-7.77],[-38.17,-7.81],[-38.23,-7.81],[-38.26,-7.85],[-38.3,-7.83],[-38.3,-7.78],[-38.36,-7.7],[-38.42,-7.75],[-38.45,-7.74],[-38.53,-7.77],[-38.59,-7.74],[-38.59,-7.69],[-38.65,-7.68],[-38.7,-7.62]],[[-40.54,-7.39],[-40.65,-7.4],[-40.69,-7.43],[-40.69,-7.51],[-40.62,-7.64],[-40.66,-7.76],[-40.55,-7.83],[-40.53,-7.91],[-40.54,-8.03],[-40.59,-8.12],[-40.75,-8.24],[-40.83,-8.36],[-40.89,-8.35],[-40.92,-8.43],[-41.02,-8.42],[-41.08,-8.53],[-41.16,-8.55],[-41.21,-8.63],[-41.37,-8.71]],[[-46.03,-14.87],[-45.93,-14.75],[-45.91,-14.69],[-45.96,-14.53],[-45.96,-14.47],[-45.92,-14.35],[-46.01,-14.3],[-46.04,-14.25],[-46.13,-14.18],[-46.17,-14.07],[-46.22,-14],[-46.26,-13.87],[-46.27,-13.66],[-46.19,-13.41],[-46.1,-13.35],[-46.08,-13.25],[-46.18,-13.22],[-46.18,-13.16],[-46.15,-13.03],[-46.07,-12.98],[-46.09,-12.91],[-46.23,-12.8]],[[-47.3,-16.04],[-47.86,-16.04],[-48.18,-16.04],[-48.25,-16.03],[-48.23,-15.96],[-48.28,-15.84],[-48.2,-15.74],[-48.24,-15.69],[-48.18,-15.49],[-47.77,-15.49],[-47.42,-15.5],[-47.41,-15.53],[-47.31,-15.59],[-47.31,-15.71],[-47.35,-15.83],[-47.36,-15.99],[-47.3,-16.04]],[[-50.96,-19.51],[-51.03,-19.37],[-51.14,-19.28],[-51.31,-19.25],[-51.4,-19.17],[-51.54,-19.14],[-51.64,-19.13],[-51.84,-19.05],[-51.91,-18.99],[-52.06,-18.95],[-52.1,-18.9],[-52.27,-18.81],[-52.34,-18.82],[-52.5,-18.7],[-52.61,-18.72],[-52.76,-18.71],[-52.87,-18.68],[-52.89,-18.64],[-52.85,-18.53],[-52.79,-18.46],[-52.78,-18.39],[-52.91,-18.35],[-52.99,-18.39],[-53.03,-18.36],[-53.06,-18.29],[-53.04,-18.1],[-53.05,-18.02]],[[-50.98,-14.46],[-50.94,-14.2],[-50.91,-14.11],[-50.87,-14.1],[-50.85,-14],[-50.86,-13.81],[-50.8,-13.61],[-50.67,-13.41],[-50.6,-13.25],[-50.59,-13.13],[-50.57,-13.01],[-50.48,-12.84]],[[-46.03,-14.87],[-46.08,-14.92],[-46.19,-14.94],[-46.3,-14.91],[-46.32,-14.85],[-46.39,-14.77],[-46.52,-14.71],[-46.58,-14.79],[-46.56,-14.87],[-46.58,-14.91],[-46.55,-15.04],[-46.64,-15.07],[-46.73,-15.02],[-46.83,-15.01],[-46.89,-15.05],[-46.93,-15.23],[-46.89,-15.24],[-46.86,-15.32],[-46.94,-15.43],[-46.93,-15.54],[-46.87,-15.59],[-46.83,-15.84],[-46.86,-15.88],[-47.08,-15.94],[-47.13,-15.92],[-47.23,-16.03],[-47.3,-16.04],[-47.34,-16.15],[-47.32,-16.23],[-47.35,-16.3],[-47.43,-16.41],[-47.45,-16.49],[-47.4,-16.57],[-47.27,-16.66],[-47.16,-16.92],[-47.15,-16.98],[-47.23,-17.03],[-47.21,-17.07],[-47.31,-17.14],[-47.42,-17.27],[-47.45,-17.35],[-47.5,-17.33],[-47.53,-17.45],[-47.46,-17.53],[-47.41,-17.5],[-47.29,-17.55],[-47.27,-17.67],[-47.33,-17.74],[-47.36,-17.82],[-47.35,-17.88],[-47.28,-18.06],[-47.32,-18.08],[-47.45,-18.17],[-47.79,-18.38],[-47.93,-18.45],[-48.02,-18.43],[-48.23,-18.34],[-48.95,-18.33],[-49.11,-18.39],[-49.18,-18.4],[-49.25,-18.47],[-49.25,-18.48],[-49.26,-18.48],[-49.26,-18.49],[-49.27,-18.49],[-49.27,-18.5],[-49.28,-18.51],[-49.28,-18.52],[-49.29,-18.52],[-49.29,-18.53],[-49.3,-18.53],[-49.3,-18.54],[-49.31,-18.54],[-49.31,-18.55],[-49.32,-18.56],[-49.32,-18.57],[-49.33,-18.57],[-49.33,-18.58],[-49.34,-18.58],[-49.42,-18.6],[-49.49,-18.52],[-49.55,-18.51],[-49.61,-18.57],[-49.68,-18.6],[-49.79,-18.61],[-49.96,-18.62],[-50.09,-18.64],[-50.25,-18.69],[-50.37,-18.77],[-50.46,-18.88],[-50.5,-18.95],[-50.49,-19.02],[-50.53,-19.09],[-50.58,-19.11],[-50.64,-19.12],[-50.71,-19.16],[-50.79,-19.24],[-50.84,-19.31],[-50.87,-19.38],[-50.87,-19.42],[-50.86,-19.44],[-50.88,-19.46],[-50.92,-19.46],[-50.96,-19.51],[-51,-19.66],[-50.99,-20.1]],[[-44.82,-23.29],[-44.86,-23.2],[-44.81,-23.14],[-44.8,-22.99],[-44.73,-22.94],[-44.59,-22.88],[-44.47,-22.85],[-44.36,-22.86],[-44.28,-22.82],[-44.25,-22.75],[-44.17,-22.7],[-44.22,-22.59],[-44.54,-22.62],[-44.64,-22.6],[-44.65,-22.56],[-44.77,-22.42],[-44.83,-22.41]],[[-46.23,-12.8],[-46.23,-12.71],[-46.16,-12.6],[-46.16,-12.5],[-46.32,-12.42],[-46.35,-12.34],[-46.34,-12.13],[-46.32,-12.09],[-46.25,-12.05],[-46.21,-12],[-46.08,-11.93],[-46.1,-11.86],[-46.16,-11.83],[-46.25,-11.84],[-46.28,-11.77],[-46.24,-11.73],[-46.11,-11.66],[-46.08,-11.6],[-46.19,-11.54],[-46.43,-11.5],[-46.49,-11.41],[-46.55,-11.38],[-46.57,-11.32],[-46.53,-11.24],[-46.46,-11.18],[-46.37,-10.97],[-46.25,-10.91],[-46.23,-10.88],[-46.3,-10.76],[-46.09,-10.58],[-46.04,-10.57],[-45.86,-10.47],[-45.76,-10.33]],[[-45.76,-10.33],[-45.94,-10.32]],[[-50.48,-12.84],[-50.39,-12.62],[-50.3,-12.49],[-50.16,-12.39],[-50.14,-12.48],[-50.2,-12.57],[-50.2,-12.66],[-50.28,-12.79],[-50.27,-12.89],[-50.24,-12.93],[-50.05,-13.02],[-49.97,-13.03],[-49.91,-13.07],[-49.69,-13.18],[-49.52,-13.2],[-49.38,-13.25],[-49.36,-13.13],[-49.3,-13],[-49.14,-12.74],[-49.02,-12.66],[-49,-12.75],[-48.93,-12.78],[-48.82,-12.87],[-48.8,-12.93],[-48.8,-13],[-48.77,-13.1],[-48.76,-13.21],[-48.78,-13.35],[-48.74,-13.38],[-48.69,-13.34],[-48.65,-13.18],[-48.59,-13.16],[-48.48,-13.2],[-48.37,-13.19],[-48.23,-13.09],[-48.16,-13.1],[-48.17,-13.18],[-48.07,-13.2],[-48,-13.25],[-47.94,-13.24],[-47.86,-13.29],[-47.68,-13.36],[-47.66,-13.32],[-47.72,-13.15],[-47.64,-13.11],[-47.56,-13.24],[-47.44,-13.25],[-47.29,-13.2],[-47.09,-13.1],[-46.97,-13.07],[-46.83,-13.07],[-46.75,-13.03],[-46.65,-12.92],[-46.59,-12.89],[-46.44,-12.85],[-46.3,-12.83],[-46.23,-12.8]],[[-37.39,-11.5],[-37.57,-11.54],[-37.63,-11.52],[-37.66,-11.56],[-37.8,-11.53],[-37.85,-11.44],[-37.97,-11.4],[-38.01,-11.36],[-37.98,-11.24],[-38.06,-11.17],[-38.11,-11.03],[-38.18,-10.98],[-38.23,-10.9],[-38.24,-10.82],[-38.19,-10.72],[-38.11,-10.71],[-38.01,-10.75],[-37.97,-10.75],[-37.82,-10.68],[-37.78,-10.63],[-37.82,-10.55],[-37.84,-10.42],[-37.78,-10.31],[-37.78,-10.08],[-37.9,-9.95],[-37.9,-9.91],[-37.96,-9.87],[-38.03,-9.73],[-37.99,-9.65],[-38.04,-9.61],[-37.98,-9.51]],[[-48.58,-25.98],[-48.65,-25.97],[-48.92,-25.98],[-48.94,-26.01],[-49.11,-25.99],[-49.21,-26.03],[-49.3,-26.11],[-49.45,-26.17],[-49.49,-26.22],[-49.6,-26.22],[-49.72,-26.16],[-49.75,-26.12],[-49.88,-26.04],[-49.95,-26.01],[-50.19,-26.05],[-50.32,-26.05],[-50.37,-26.09],[-50.46,-26.03],[-50.54,-26.03],[-50.65,-26.07],[-50.73,-26.23],[-50.77,-26.22],[-50.9,-26.28],[-50.94,-26.24],[-51.07,-26.24],[-51.25,-26.35],[-51.29,-26.42],[-51.28,-26.5],[-51.24,-26.61],[-51.28,-26.65],[-51.42,-26.7],[-51.5,-26.6],[-51.87,-26.6],[-52.01,-26.58],[-52.2,-26.45],[-52.46,-26.43],[-52.54,-26.4],[-52.64,-26.4],[-52.67,-26.38],[-52.82,-26.34],[-52.91,-26.37],[-52.99,-26.35],[-53.12,-26.37],[-53.28,-26.26],[-53.36,-26.24],[-53.46,-26.29],[-53.52,-26.29],[-53.66,-26.26]],[[-63.39,2.22],[-63.31,2.17],[-63.15,2.18],[-63.12,2.11],[-63,2.02],[-62.85,2.02],[-62.71,1.95],[-62.69,1.91],[-62.73,1.83],[-62.71,1.74],[-62.79,1.6],[-62.72,1.5],[-62.62,1.42],[-62.61,1.36],[-62.52,1.06],[-62.51,0.96],[-62.44,0.8],[-62.53,0.73],[-62.54,0.68],[-62.48,0.54],[-62.49,0.49],[-62.53,0.43],[-62.53,0.31],[-62.57,0.25],[-62.57,0.18],[-62.53,0.09],[-62.58,0.02],[-62.57,-0.05],[-62.51,-0.12],[-62.48,-0.22],[-62.4,-0.27],[-62.37,-0.34],[-62.37,-0.47],[-62.32,-0.52],[-62.31,-0.64],[-62.38,-0.72],[-62.48,-0.7],[-62.51,-0.77],[-62.42,-0.83],[-62.32,-0.95],[-62.24,-0.98],[-62.2,-1.04],[-62.14,-1.07],[-62.03,-1.15],[-61.94,-1.24],[-61.88,-1.37],[-61.88,-1.39],[-61.8,-1.39],[-61.72,-1.4],[-61.62,-1.45],[-61.62,-1.28],[-61.57,-1.14],[-61.56,-1.02],[-61.58,-0.95],[-61.53,-0.73],[-61.46,-0.64],[-61.24,-0.55],[-61.22,-0.5],[-61.11,-0.49],[-61.06,-0.53],[-60.93,-0.56],[-60.9,-0.61],[-60.82,-0.69],[-60.73,-0.85],[-60.64,-0.86],[-60.52,-0.83],[-60.47,-0.74],[-60.34,-0.7],[-60.31,-0.67],[-60.32,-0.62],[-60.39,-0.52],[-60.39,-0.46],[-60.32,-0.31],[-60.31,-0.24],[-60.25,-0.15],[-60.22,-0.04],[-60.17,0.01],[-60.13,0.13],[-60.03,0.22],[-59.77,0.23],[-58.87,0.22]],[[-58.97,1.39],[-58.87,0.22]],[[-73.8,-7.12],[-72.66,-7.59],[-70.37,-8.16],[-69.81,-8.45],[-66.83,-9.84],[-66.74,-9.75],[-66.69,-9.75],[-66.6,-9.66],[-66.5,-9.63],[-66.4,-9.53],[-66.4,-9.41],[-66.11,-9.42],[-66,-9.4],[-65.93,-9.41],[-65.77,-9.57],[-65.68,-9.53],[-65.63,-9.45],[-65.53,-9.41],[-65.44,-9.45],[-65.42,-9.39],[-65.22,-9.26],[-65.2,-9.27],[-65.17,-9.37],[-65.09,-9.44],[-65.04,-9.4],[-64.9,-9.21],[-64.93,-9.12],[-64.89,-9.06],[-64.78,-8.99],[-64.69,-9.02],[-64.6,-9.03],[-64.48,-8.95],[-64.42,-8.97],[-64.38,-8.94],[-64.22,-8.95],[-64.12,-8.94],[-64.13,-8.69],[-64.07,-8.71],[-64,-8.68],[-63.92,-8.53],[-63.99,-8.44],[-63.92,-8.33],[-63.75,-8.28],[-63.73,-8.19],[-63.59,-8.16],[-63.59,-8.08],[-63.54,-8],[-62.9,-8.01],[-62.83,-8.02],[-62.72,-8.06],[-62.68,-8.11],[-62.64,-8.22],[-62.56,-8.29],[-62.54,-8.36],[-62.45,-8.35],[-62.37,-8.38],[-62.31,-8.57],[-62.17,-8.61],[-62.13,-8.77],[-62,-8.81],[-61.92,-8.87],[-61.87,-8.86],[-61.84,-8.74],[-61.76,-8.73],[-61.72,-8.69],[-61.61,-8.72],[-61.61,-8.77]],[[-61.61,-8.77],[-61.51,-8.85],[-61.48,-8.91],[-61.53,-9],[-61.56,-9.13],[-61.53,-9.23],[-61.59,-9.24],[-61.61,-9.32],[-61.55,-9.41],[-61.55,-9.46],[-61.48,-9.64],[-61.52,-9.7],[-61.57,-9.73],[-61.52,-9.86],[-61.53,-9.99],[-61.57,-10.06],[-61.57,-10.26],[-61.47,-10.44],[-61.5,-10.69],[-61.47,-10.76],[-61.52,-10.79],[-61.51,-10.88],[-61.52,-10.95],[-61.47,-11],[-60.44,-11],[-60.44,-11.04],[-60.38,-11.1],[-60.28,-11.08],[-60.18,-11.12],[-60.07,-11.11],[-60,-11.15],[-59.91,-11.38],[-60.03,-11.53],[-60.1,-11.6],[-60.1,-11.74],[-60.06,-11.91],[-59.98,-11.92],[-59.93,-12.05],[-59.89,-12.13],[-59.89,-12.24],[-59.82,-12.39],[-59.91,-12.62],[-60,-12.73],[-60.04,-12.87],[-60.08,-12.93],[-60.19,-12.97],[-60.27,-13.07],[-60.28,-13.14],[-60.35,-13.27],[-60.38,-13.42],[-60.66,-13.6],[-60.73,-13.66]],[[-38.53,-6.38],[-38.61,-6.4],[-38.58,-6.26],[-38.51,-6.18],[-38.49,-6.13],[-38.41,-6.06],[-38.37,-6.09],[-38.3,-6.07],[-38.13,-5.88],[-38.08,-5.76],[-38.08,-5.69],[-38.05,-5.61],[-37.91,-5.46],[-37.72,-5.06],[-37.6,-4.96],[-37.54,-4.93],[-37.16,-4.8]],[[-38.53,-6.38],[-38.44,-6.41],[-38.28,-6.5],[-38.24,-6.49],[-38.13,-6.52],[-38.06,-6.45],[-38,-6.43],[-37.84,-6.34],[-37.79,-6.29],[-37.76,-6.18],[-37.64,-6.13],[-37.48,-6.08],[-37.42,-6.1],[-37.26,-6.03],[-37.18,-6.05],[-37.18,-6.11],[-37.4,-6.39],[-37.43,-6.52],[-37.51,-6.55],[-37.52,-6.68],[-37.34,-6.7],[-37.27,-6.74],[-37.22,-6.82],[-37.15,-6.78],[-37.04,-6.75],[-36.99,-6.71],[-36.94,-6.75],[-36.79,-6.77],[-36.74,-6.82],[-36.77,-6.93],[-36.71,-6.98],[-36.66,-6.93],[-36.57,-6.93],[-36.5,-6.78],[-36.53,-6.74],[-36.53,-6.64],[-36.44,-6.62],[-36.52,-6.48],[-36.49,-6.38],[-36.38,-6.3],[-36.29,-6.31],[-36.25,-6.41],[-35.93,-6.47],[-35.72,-6.45],[-35.67,-6.43],[-35.47,-6.46],[-35.31,-6.53],[-35.26,-6.51],[-35.05,-6.53],[-34.92,-6.48]],[[-41.86,-20.78],[-41.74,-20.82],[-41.71,-20.98],[-41.73,-21.04],[-41.71,-21.11],[-41.44,-21.2],[-41.39,-21.19],[-41.27,-21.23],[-41.07,-21.21],[-40.97,-21.28]],[[-41.93,-20.83],[-41.86,-20.78]],[[-45.76,-10.33],[-45.61,-10.33],[-45.52,-10.41],[-45.47,-10.49],[-45.44,-10.62],[-45.32,-10.78],[-45.04,-10.9],[-44.93,-10.86],[-44.85,-10.88],[-44.78,-10.86],[-44.75,-10.78],[-44.65,-10.74],[-44.62,-10.69],[-44.54,-10.63],[-44.42,-10.59],[-44.31,-10.6],[-44.22,-10.63],[-44.12,-10.59],[-43.99,-10.45],[-43.91,-10.43],[-43.8,-10.2],[-43.76,-10.17],[-43.75,-10.11],[-43.7,-10.03],[-43.71,-9.95],[-43.68,-9.8],[-43.73,-9.75],[-43.78,-9.57],[-43.83,-9.5],[-43.81,-9.43],[-43.69,-9.45],[-43.66,-9.36],[-43.61,-9.34],[-43.54,-9.36],[-43.45,-9.3],[-43.41,-9.34],[-43.38,-9.41],[-43.19,-9.42],[-43.13,-9.37],[-43.04,-9.4],[-43.03,-9.44],[-42.94,-9.47],[-42.93,-9.52],[-42.85,-9.55],[-42.75,-9.52],[-42.62,-9.57],[-42.57,-9.49],[-42.49,-9.5],[-42.43,-9.41],[-42.31,-9.31],[-42.15,-9.29],[-42.04,-9.21],[-41.92,-9.21],[-41.85,-9.25],[-41.8,-9.17],[-41.73,-9.13],[-41.73,-8.98],[-41.61,-8.96],[-41.56,-8.97],[-41.5,-8.94],[-41.47,-8.86],[-41.4,-8.78],[-41.37,-8.71]],[[-40.54,-7.39],[-40.53,-7.32],[-40.58,-7.2],[-40.51,-7],[-40.44,-6.91],[-40.42,-6.81],[-40.48,-6.74],[-40.61,-6.71],[-40.71,-6.66],[-40.72,-6.57],[-40.77,-6.49],[-40.8,-6.38],[-40.81,-6.25],[-40.89,-6.01],[-40.89,-5.91],[-40.92,-5.68],[-40.92,-5.6],[-40.95,-5.42],[-41.03,-5.36],[-41.07,-5.31],[-41.06,-5.17],[-41.11,-5.07],[-41.12,-5.01],[-41.19,-4.91],[-41.18,-4.81],[-41.23,-4.73],[-41.24,-4.61],[-41.23,-4.54],[-41.14,-4.43],[-41.07,-4.32],[-41.12,-4.18],[-41.18,-4.12],[-41.23,-4.04],[-41.28,-3.81],[-41.36,-3.71],[-41.38,-3.59],[-41.45,-3.44],[-41.43,-3.32],[-41.38,-3.27],[-41.26,-3.08],[-41.27,-2.87]],[[-38.7,-7.62],[-38.64,-7.53],[-38.63,-7.46],[-38.58,-7.43],[-38.53,-7.29],[-38.55,-7.24],[-38.6,-7.22],[-38.68,-7.16],[-38.69,-7.03],[-38.73,-7],[-38.73,-6.89],[-38.65,-6.84],[-38.62,-6.76],[-38.65,-6.69],[-38.58,-6.48],[-38.53,-6.38]],[[-54.68,2.51],[-54.73,2.42],[-54.72,2.26],[-54.79,2.13],[-54.75,2.08],[-54.79,2.01],[-54.76,1.97],[-54.77,1.9],[-54.73,1.77],[-54.58,1.78],[-54.5,1.75],[-54.36,1.76],[-54.2,1.66],[-54.17,1.66],[-54.08,1.54],[-54.08,1.51],[-54.01,1.52],[-53.92,1.46],[-53.89,1.41],[-53.76,1.39],[-53.74,1.43],[-53.66,1.42],[-53.65,1.36],[-53.56,1.37],[-53.54,1.24],[-53.44,1.26],[-53.41,1.18],[-53.47,1.15],[-53.42,0.94],[-53.27,0.78],[-53.13,0.75],[-53.11,0.72],[-53.14,0.54],[-53.13,0.39],[-53.04,0.25],[-53.01,0.14],[-53.02,0.05],[-52.98,-0.02],[-52.91,-0.19],[-52.83,-0.18],[-52.7,-0.3],[-52.63,-0.4],[-52.63,-0.56],[-52.61,-0.61],[-52.53,-0.65],[-52.51,-0.73],[-52.52,-0.87],[-52.4,-0.87],[-52.37,-0.92],[-52.39,-0.95],[-52.36,-1.07],[-52.24,-1.15],[-52.13,-1.15],[-52.05,-1.18],[-51.98,-1.14],[-51.89,-1.16]],[[-58.87,0.22],[-58.85,-0.08],[-58.86,-0.17],[-58.86,-0.35],[-58.74,-0.43],[-58.75,-0.62],[-58.7,-0.7],[-58.63,-0.77],[-58.57,-0.76],[-58.44,-0.86],[-58.39,-1.05],[-58.32,-1.12],[-58.25,-1.13],[-58.16,-1.24],[-58.08,-1.3],[-57.98,-1.35],[-57.9,-1.42],[-57.83,-1.45],[-57.65,-1.59],[-57.57,-1.62],[-57.45,-1.69],[-57.34,-1.73],[-57.28,-1.71],[-57.25,-1.76],[-57.17,-1.77],[-57.09,-1.81],[-57.01,-1.94],[-56.82,-2.03],[-56.74,-2.05],[-56.75,-2.18],[-56.64,-2.22],[-56.5,-2.16],[-56.48,-2.25],[-56.4,-2.34],[-56.39,-2.39],[-56.76,-3.19],[-58.29,-6.5],[-58.37,-6.57],[-58.44,-6.68],[-58.46,-6.79],[-58.39,-6.95],[-58.23,-7.14],[-58.15,-7.26],[-58.14,-7.34]],[[-50.23,-9.84],[-51.3,-9.79],[-55.09,-9.57],[-56.46,-9.47],[-56.49,-9.47],[-56.68,-9.38],[-56.77,-9.4],[-56.84,-9.27],[-56.93,-9.24],[-57.05,-9.23],[-57.07,-9.19],[-57.08,-9.08],[-57.1,-9.05],[-57.3,-8.96],[-57.48,-8.79],[-57.58,-8.76],[-57.64,-8.61],[-57.65,-8.5],[-57.68,-8.44],[-57.64,-8.23],[-57.78,-8.05],[-57.9,-7.69],[-57.95,-7.62],[-57.98,-7.53],[-58.06,-7.41],[-58.14,-7.34]],[[-41.86,-20.78],[-41.88,-20.76],[-41.81,-20.65],[-41.85,-20.62],[-41.8,-20.53],[-41.8,-20.43],[-41.86,-20.37],[-41.72,-20.21],[-41.4,-20.21],[-41.36,-20.19],[-41.31,-19.95],[-41.19,-19.87],[-41.16,-19.66],[-41.03,-19.55],[-41.05,-19.49],[-40.96,-19.47],[-40.93,-19.29],[-40.94,-19.15],[-41.05,-19.03],[-41.03,-18.98],[-41.11,-18.89],[-41.16,-18.91],[-41.23,-18.85],[-41.19,-18.81],[-41.09,-18.83],[-40.93,-18.81],[-40.93,-18.7],[-41.03,-18.64],[-41,-18.45],[-41.03,-18.41],[-41.13,-18.33],[-41.14,-18.3],[-41.06,-18.18],[-41.02,-18.17],[-40.91,-18.1],[-40.84,-18.15],[-40.77,-18.14],[-40.78,-18.09],[-40.91,-17.97],[-40.79,-17.97],[-40.73,-17.95],[-40.67,-17.95],[-40.53,-17.9],[-40.48,-17.93],[-40.43,-17.89],[-40.22,-17.97]],[[-40.22,-17.97],[-40.21,-17.98]],[[-61.61,-8.77],[-58.55,-8.75],[-58.47,-8.69],[-58.43,-8.52],[-58.4,-8.42],[-58.35,-8.28],[-58.33,-8.05],[-58.35,-7.91],[-58.33,-7.78],[-58.26,-7.67],[-58.22,-7.57],[-58.22,-7.48],[-58.2,-7.41],[-58.14,-7.34]],[[-53.05,-18.02],[-53.07,-18.02]],[[-40.21,-17.98],[-40.19,-18.01],[-39.67,-18.32]],[[-50.48,-12.84],[-50.57,-12.82],[-50.61,-12.76],[-50.66,-12.67],[-50.66,-12.56],[-50.63,-12.44],[-50.63,-12.29],[-50.67,-12.11],[-50.67,-11.99],[-50.65,-11.92],[-50.66,-11.85],[-50.72,-11.75],[-50.67,-11.65],[-50.67,-11.57],[-50.72,-11.48],[-50.71,-11.35],[-50.65,-11.16],[-50.61,-11],[-50.6,-10.69],[-50.55,-10.57],[-50.45,-10.39],[-50.4,-10.26],[-50.4,-10.18],[-50.34,-10.03],[-50.23,-9.84],[-50.18,-9.73],[-50.08,-9.42],[-49.98,-9.22],[-49.83,-9.02],[-49.71,-8.9],[-49.61,-8.84],[-49.5,-8.71],[-49.38,-8.5],[-49.28,-8.3],[-49.23,-8.14],[-49.19,-7.99],[-49.17,-7.87],[-49.22,-7.75],[-49.33,-7.65],[-49.34,-7.51],[-49.24,-7.33],[-49.2,-7.17],[-49.21,-7.01],[-49.08,-6.86],[-48.81,-6.72],[-48.65,-6.6],[-48.62,-6.49],[-48.58,-6.41],[-48.53,-6.37],[-48.47,-6.35],[-48.41,-6.36],[-48.39,-6.31],[-48.41,-6.21],[-48.39,-6.14],[-48.32,-6.11],[-48.3,-6.07],[-48.32,-6.01],[-48.31,-5.97],[-48.25,-5.95],[-48.25,-5.89],[-48.28,-5.8],[-48.26,-5.72],[-48.18,-5.67],[-48.16,-5.62],[-48.19,-5.57],[-48.23,-5.53],[-48.28,-5.52],[-48.32,-5.49],[-48.36,-5.42],[-48.42,-5.4],[-48.51,-5.41],[-48.6,-5.4],[-48.72,-5.36],[-48.63,-5.33],[-48.57,-5.29],[-48.52,-5.22],[-48.46,-5.18],[-48.38,-5.17],[-48.28,-5.19],[-48.17,-5.24],[-48.06,-5.26],[-47.95,-5.26],[-47.88,-5.29],[-47.85,-5.35],[-47.76,-5.41],[-47.61,-5.46],[-47.52,-5.51],[-47.49,-5.56],[-47.44,-5.75],[-47.4,-6.07],[-47.41,-6.42],[-47.47,-6.8],[-47.54,-7.03],[-47.61,-7.11],[-47.67,-7.17],[-47.72,-7.18],[-47.72,-7.22],[-47.67,-7.28],[-47.61,-7.3],[-47.55,-7.29],[-47.51,-7.31],[-47.5,-7.36],[-47.5,-7.45],[-47.46,-7.53],[-47.41,-7.53],[-47.35,-7.66],[-47.3,-7.66],[-47.28,-7.73],[-47.15,-7.86],[-47.08,-7.98],[-47.02,-8.04],[-46.98,-8.04],[-46.87,-7.96],[-46.74,-7.92],[-46.57,-7.91],[-46.49,-7.96],[-46.47,-8.07],[-46.5,-8.17],[-46.51,-8.28],[-46.54,-8.32],[-46.5,-8.4],[-46.66,-8.4],[-46.79,-8.44],[-46.84,-8.49],[-46.88,-8.58],[-46.92,-8.74],[-46.9,-8.83],[-47.07,-8.98],[-47.08,-9.03],[-47.04,-9.07],[-46.94,-9.07],[-46.85,-9.17],[-46.83,-9.31],[-46.75,-9.41],[-46.56,-9.5],[-46.53,-9.56],[-46.6,-9.65],[-46.65,-9.66],[-46.67,-9.74],[-46.51,-9.86],[-46.46,-9.95],[-46.47,-10],[-46.35,-10.17],[-46.28,-10.19],[-46.19,-10.18],[-46.09,-10.21],[-46.03,-10.27],[-45.94,-10.32]],[[-48.72,-5.36],[-48.73,-5.34],[-48.25,-4.95],[-47.8,-4.6],[-47.65,-4.61],[-47.58,-4.55],[-47.49,-4.42],[-47.46,-4.34],[-47.38,-4.28],[-47.33,-4.16],[-47.31,-4.07],[-47.29,-4.08],[-47.07,-3.84],[-47.03,-3.6],[-47.03,-3.57],[-46.97,-3.53],[-46.94,-3.4],[-46.86,-3.33],[-46.82,-3.33],[-46.74,-3.19],[-46.67,-3.09],[-46.64,-2.99],[-46.65,-2.91],[-46.57,-2.85],[-46.67,-2.74],[-46.6,-2.66],[-46.51,-2.61],[-46.48,-2.55],[-46.43,-2.51],[-46.44,-2.41],[-46.41,-2.39],[-46.41,-2.24],[-46.38,-2.25],[-46.28,-2.14],[-46.21,-1.93],[-46.22,-1.81],[-46.3,-1.8],[-46.32,-1.73],[-46.24,-1.72],[-46.2,-1.68],[-46.18,-1.57],[-46.2,-1.49],[-46.12,-1.35],[-46.16,-1.32],[-46.14,-1.24],[-46.01,-1.15]],[[-45.94,-10.32],[-45.94,-10.21],[-45.95,-10.18],[-45.9,-10.08],[-45.9,-10.03],[-45.86,-10],[-45.86,-9.83],[-45.84,-9.53],[-45.8,-9.46],[-45.83,-9.37],[-45.9,-9.33],[-45.9,-9.18],[-45.94,-9.12],[-45.94,-9.01],[-45.98,-8.93],[-45.93,-8.79],[-45.82,-8.7],[-45.75,-8.56],[-45.73,-8.43],[-45.66,-8.31],[-45.65,-8.25],[-45.58,-8.15],[-45.54,-7.87],[-45.47,-7.67],[-45.3,-7.56],[-45.03,-7.49],[-44.91,-7.45],[-44.82,-7.36],[-44.71,-7.4],[-44.58,-7.25],[-44.45,-7.15],[-44.31,-7.11],[-44.26,-7.01],[-44.17,-6.92],[-44.16,-6.89],[-44.09,-6.81],[-44.06,-6.83],[-44.04,-6.77],[-43.95,-6.76],[-43.82,-6.71],[-43.68,-6.7],[-43.56,-6.75],[-43.46,-6.84],[-43.3,-6.8],[-43.2,-6.75],[-43.13,-6.78],[-42.98,-6.74],[-42.92,-6.67],[-42.91,-6.61],[-42.86,-6.48],[-42.87,-6.44],[-42.85,-6.25],[-42.96,-6.19],[-43,-6.12],[-43.07,-6.06],[-43.11,-5.77],[-43.08,-5.71],[-43.1,-5.62],[-43.05,-5.6],[-42.91,-5.39],[-42.83,-5.31],[-42.81,-5.16],[-42.83,-5.1],[-42.86,-4.94],[-42.9,-4.83],[-42.95,-4.78],[-42.93,-4.73],[-42.95,-4.66],[-42.91,-4.64],[-42.86,-4.5],[-42.9,-4.41],[-42.95,-4.39],[-42.99,-4.24],[-42.89,-4.14],[-42.85,-4.04],[-42.73,-3.92],[-42.66,-3.79],[-42.68,-3.7],[-42.63,-3.61],[-42.57,-3.57],[-42.5,-3.45],[-42.45,-3.48],[-42.36,-3.45],[-42.22,-3.43],[-42.1,-3.3],[-42.11,-3.26],[-42,-3.23],[-41.92,-3.11],[-41.84,-3.03],[-41.82,-2.94],[-41.87,-2.85],[-41.83,-2.68]],[[-41.37,-8.71],[-41.32,-8.74],[-41.16,-8.71],[-41.11,-8.72],[-41.1,-8.78],[-41,-8.78],[-40.98,-8.82],[-40.89,-8.86],[-40.89,-9.03],[-40.86,-9.09],[-40.85,-9.15],[-40.7,-9.22],[-40.69,-9.34],[-40.74,-9.42],[-40.69,-9.47],[-40.56,-9.46],[-40.41,-9.4],[-40.32,-9.29],[-40.27,-9.15],[-40.21,-9.1],[-40.08,-9.09],[-40,-9.06],[-39.95,-9.02],[-39.91,-8.98],[-39.89,-8.92],[-39.88,-8.85],[-39.83,-8.81],[-39.74,-8.79],[-39.69,-8.75],[-39.68,-8.68],[-39.6,-8.62],[-39.44,-8.56],[-39.33,-8.57],[-39.26,-8.64],[-39.1,-8.71],[-38.84,-8.8],[-38.71,-8.88],[-38.67,-8.9],[-38.62,-8.9],[-38.58,-8.86],[-38.54,-8.83],[-38.5,-8.83],[-38.48,-8.88],[-38.48,-8.96],[-38.43,-9],[-38.34,-9.01],[-38.29,-9.04],[-38.31,-9.1],[-38.28,-9.2],[-38.22,-9.35],[-37.98,-9.51],[-37.94,-9.54],[-37.43,-9.78],[-37.2,-9.89],[-37.02,-9.96],[-36.96,-10.01],[-36.94,-10.08],[-36.88,-10.15],[-36.78,-10.22],[-36.7,-10.26],[-36.65,-10.25],[-36.61,-10.29],[-36.58,-10.37],[-36.54,-10.41],[-36.48,-10.41],[-36.47,-10.41],[-36.47,-10.42],[-36.46,-10.42],[-36.46,-10.43],[-36.45,-10.43],[-36.44,-10.43],[-36.43,-10.45]],[[-40.21,-17.98],[-40.23,-17.92],[-40.19,-17.82],[-40.21,-17.77],[-40.28,-17.72],[-40.38,-17.62],[-40.41,-17.56],[-40.48,-17.56],[-40.5,-17.42],[-40.61,-17.39],[-40.61,-17.31],[-40.57,-17.26],[-40.57,-17.13],[-40.53,-16.93],[-40.47,-16.87],[-40.3,-16.88],[-40.24,-16.83],[-40.28,-16.74],[-40.28,-16.61],[-40.25,-16.57],[-40.14,-16.54],[-40.13,-16.5],[-40.06,-16.4],[-39.94,-16.31],[-39.86,-16.11],[-39.94,-16],[-40,-15.99],[-40.13,-15.89],[-40.17,-15.9],[-40.23,-15.82],[-40.33,-15.82],[-40.48,-15.78],[-40.53,-15.8],[-40.57,-15.76],[-40.67,-15.72],[-40.76,-15.74],[-40.83,-15.68],[-40.89,-15.7],[-40.94,-15.67],[-41.03,-15.74],[-41.16,-15.78],[-41.33,-15.72],[-41.36,-15.49],[-41.8,-15.11],[-41.94,-15.17],[-42.09,-15.18],[-42.18,-15.11],[-42.26,-15.11],[-42.43,-15.03],[-42.58,-14.93],[-42.63,-14.94],[-42.89,-14.75],[-42.95,-14.68],[-43.23,-14.64],[-43.39,-14.7],[-43.45,-14.78],[-43.49,-14.79],[-43.71,-14.74],[-43.82,-14.7],[-43.86,-14.66],[-43.88,-14.62],[-43.88,-14.61],[-43.87,-14.6],[-43.87,-14.59],[-43.87,-14.58],[-43.87,-14.57],[-43.87,-14.56],[-43.86,-14.55],[-43.86,-14.54],[-43.86,-14.53],[-43.8,-14.37],[-43.78,-14.34],[-43.84,-14.32],[-44.16,-14.27],[-44.21,-14.24],[-44.32,-14.24],[-44.36,-14.27],[-44.56,-14.35],[-44.84,-14.52],[-44.88,-14.6],[-45.1,-14.72],[-45.23,-14.74],[-45.32,-14.86],[-45.46,-14.94],[-45.55,-14.94],[-45.65,-15.04],[-45.71,-15.12],[-45.77,-15.15],[-45.93,-15.13],[-45.97,-15.19],[-46.07,-15.25],[-45.98,-14.99],[-46.03,-14.87]],[[-44.83,-22.41],[-44.73,-22.36],[-44.66,-22.37],[-44.6,-22.32],[-44.53,-22.3],[-44.44,-22.25],[-44.29,-22.24],[-44.22,-22.25],[-44.09,-22.17],[-43.9,-22.11],[-43.82,-22.07],[-43.57,-22.07],[-43.46,-22.06],[-43.34,-22],[-43.13,-22.03],[-43.06,-22.06],[-42.28,-21.71],[-42.28,-21.64],[-42.37,-21.63],[-42.36,-21.59],[-42.3,-21.49],[-42.3,-21.41],[-42.22,-21.34],[-42.18,-21.16],[-42.1,-21],[-42.14,-20.96],[-42.1,-20.92],[-42,-20.93],[-41.96,-20.91],[-41.93,-20.83]],[[-44.83,-22.41],[-44.92,-22.45],[-45.06,-22.47],[-45.24,-22.56],[-45.27,-22.61],[-45.41,-22.65],[-45.47,-22.61],[-45.53,-22.65],[-45.58,-22.62],[-45.63,-22.62],[-45.67,-22.62],[-45.8,-22.7],[-45.74,-22.73],[-45.74,-22.8],[-45.79,-22.85],[-45.86,-22.86],[-45.91,-22.82],[-46.02,-22.87],[-46.15,-22.89],[-46.15,-22.85],[-46.29,-22.88],[-46.36,-22.84],[-46.37,-22.75],[-46.47,-22.68],[-46.4,-22.62],[-46.45,-22.52],[-46.54,-22.47],[-46.55,-22.44],[-46.64,-22.41],[-46.7,-22.32],[-46.66,-22.2],[-46.6,-22.13],[-46.66,-22.05],[-46.62,-21.99],[-46.66,-21.91],[-46.67,-21.81],[-46.63,-21.77],[-46.61,-21.68],[-46.56,-21.67],[-46.49,-21.53],[-46.51,-21.46],[-46.61,-21.43],[-46.65,-21.37],[-46.69,-21.4],[-46.82,-21.36],[-46.9,-21.41],[-47,-21.4],[-46.99,-21.34],[-47.06,-21.2],[-47.12,-21.13],[-47.15,-20.98],[-47.22,-20.91],[-47.21,-20.81],[-47.11,-20.63],[-47.15,-20.53],[-47.25,-20.48],[-47.29,-20.42],[-47.27,-20.28],[-47.23,-20.2],[-47.24,-20.17],[-47.33,-20.12],[-47.43,-20.04],[-47.46,-20],[-47.52,-19.99],[-47.59,-20.02],[-47.66,-20.02],[-47.7,-19.99],[-47.75,-19.98],[-47.82,-19.98],[-47.86,-20.01],[-47.86,-20.06],[-47.91,-20.08],[-47.99,-20.08],[-48.05,-20.12],[-48.11,-20.12],[-48.18,-20.08],[-48.25,-20.09],[-48.36,-20.14],[-48.72,-20.14],[-48.81,-20.16],[-48.86,-20.23],[-48.89,-20.37],[-48.92,-20.43],[-48.95,-20.41],[-48.98,-20.34],[-48.99,-20.21],[-49.04,-20.19],[-49.11,-20.26],[-49.17,-20.3],[-49.2,-20.29],[-49.24,-20.25],[-49.28,-20.15],[-49.29,-20.07],[-49.26,-20.02],[-49.28,-19.99],[-49.38,-19.98],[-50.36,-19.86],[-50.43,-19.8],[-50.49,-19.79],[-50.58,-19.82],[-50.99,-20.1]],[[-50.99,-20.1],[-51.06,-20.22],[-51.16,-20.31],[-51.4,-20.44],[-51.53,-20.56],[-51.59,-20.67],[-51.62,-20.81],[-51.69,-20.94],[-51.81,-21.08],[-51.87,-21.18],[-51.86,-21.26],[-51.87,-21.33],[-51.94,-21.42],[-51.95,-21.47],[-51.99,-21.49],[-52.05,-21.51],[-52.07,-21.55],[-52.06,-21.62],[-52.12,-21.72],[-52.25,-21.84],[-52.34,-21.96],[-52.4,-22.07],[-52.57,-22.21],[-52.96,-22.45],[-53.12,-22.64],[-53.27,-22.75],[-53.48,-22.85],[-53.62,-23],[-53.68,-23.17],[-53.77,-23.32],[-53.91,-23.41],[-54,-23.57],[-54.05,-23.82],[-54.12,-23.98],[-54.24,-24.05]],[[-51,-22.79],[-51.18,-22.74],[-51.36,-22.65],[-51.55,-22.69],[-51.64,-22.65],[-51.69,-22.66],[-51.74,-22.62],[-51.87,-22.61],[-51.98,-22.55],[-52.07,-22.52],[-52.14,-22.54],[-52.16,-22.6],[-52.22,-22.64],[-52.26,-22.6],[-52.32,-22.62],[-52.44,-22.6],[-52.52,-22.62],[-52.61,-22.57],[-52.69,-22.6],[-52.95,-22.57],[-53.04,-22.64],[-53.12,-22.64]],[[-48.09,-25.28],[-48.09,-25.24],[-48.19,-25.19],[-48.23,-25.01],[-48.27,-25.03],[-48.41,-24.96],[-48.51,-25.08],[-48.57,-25.06],[-48.54,-24.81],[-48.49,-24.74],[-48.61,-24.68],[-48.78,-24.7],[-48.83,-24.66],[-49.03,-24.67],[-49.09,-24.69],[-49.22,-24.69],[-49.3,-24.66],[-49.31,-24.53],[-49.24,-24.42],[-49.23,-24.34],[-49.28,-24.32],[-49.34,-24.21],[-49.33,-24.14],[-49.41,-24.08],[-49.6,-23.87],[-49.57,-23.83],[-49.55,-23.71],[-49.61,-23.64],[-49.65,-23.51],[-49.61,-23.41],[-49.64,-23.26],[-49.73,-23.11],[-49.91,-23.03],[-49.91,-22.99],[-49.96,-22.96],[-49.97,-22.91],[-50.12,-22.94],[-50.29,-22.95],[-50.37,-22.91],[-50.43,-22.95],[-50.63,-22.92],[-50.73,-22.95],[-50.78,-22.95],[-50.88,-22.82],[-51,-22.79]],[[-53.07,-18.02],[-53.15,-18.03],[-53.31,-18],[-53.49,-18.01],[-53.61,-17.99],[-53.73,-18.01],[-53.87,-17.95],[-53.98,-17.93],[-53.99,-17.9],[-53.86,-17.69],[-53.75,-17.64],[-53.68,-17.26],[-53.74,-17.25],[-53.82,-17.31],[-53.95,-17.46],[-54.04,-17.51],[-54.08,-17.59],[-54.15,-17.63],[-54.23,-17.64],[-54.32,-17.67],[-54.39,-17.67],[-54.42,-17.58],[-54.53,-17.51],[-54.7,-17.52],[-54.78,-17.56],[-54.81,-17.6],[-54.9,-17.65],[-55.07,-17.68],[-55.18,-17.69],[-55.34,-17.58],[-55.53,-17.5],[-55.61,-17.39],[-55.79,-17.35],[-55.83,-17.31],[-55.98,-17.27],[-56.03,-17.21],[-56.1,-17.19],[-56.25,-17.22],[-56.33,-17.28],[-56.44,-17.32],[-56.49,-17.3],[-56.67,-17.32],[-56.75,-17.32],[-56.79,-17.39],[-56.89,-17.52],[-56.98,-17.59],[-57.08,-17.73],[-57.2,-17.81],[-57.37,-17.88],[-57.42,-17.88],[-57.47,-17.9],[-57.49,-17.87],[-57.6,-17.82],[-57.63,-17.74],[-57.75,-17.73]],[[-53.05,-18.02],[-53.12,-17.85],[-53.21,-17.41],[-53.2,-17.3],[-53.16,-17.21],[-53.08,-17.09],[-53.03,-17],[-53.02,-16.91],[-52.94,-16.81],[-52.79,-16.7],[-52.68,-16.58],[-52.61,-16.43],[-52.68,-16.36],[-52.67,-16.29],[-52.53,-16.23],[-52.54,-16.17],[-52.42,-16.08],[-52.36,-16.06],[-52.31,-16.01],[-52.26,-15.94],[-52.14,-15.87],[-51.96,-15.82],[-51.85,-15.75],[-51.8,-15.66],[-51.78,-15.59],[-51.79,-15.56],[-51.77,-15.52],[-51.73,-15.49],[-51.7,-15.4],[-51.66,-15.26],[-51.59,-15.14],[-51.47,-15.04],[-51.29,-15],[-51.25,-15],[-51.19,-14.98],[-51.11,-14.84],[-50.98,-14.46]],[[138,-16.56],[138,-26]],[[129,-26],[129,-14.87]],[[138,-26],[129,-26]],[[141,-29],[141,-26],[138,-26]],[[129,-31.69],[129,-26]],[[141,-34.02],[140.97,-34.01],[140.97,-38.07]],[[141,-29],[148.97,-29],[148.99,-28.99],[149,-28.98],[149.01,-28.97],[149.02,-28.97],[149.02,-28.96],[149.03,-28.96],[149.03,-28.95],[149.04,-28.95],[149.04,-28.94],[149.05,-28.94],[149.05,-28.93],[149.06,-28.93],[149.08,-28.87],[149.17,-28.81],[149.34,-28.72],[149.43,-28.66],[149.47,-28.61],[149.51,-28.58],[149.6,-28.57],[149.68,-28.61],[149.85,-28.6],[150.15,-28.56],[150.34,-28.56],[150.47,-28.65],[150.71,-28.64],[150.86,-28.66],[150.98,-28.71],[151.05,-28.76],[151.06,-28.8],[151.12,-28.85],[151.23,-28.9],[151.3,-28.98],[151.33,-29.1],[151.39,-29.14],[151.48,-29.09],[151.53,-29.03],[151.55,-28.96],[151.73,-28.89],[151.76,-28.95],[151.82,-28.97],[151.85,-28.92],[151.94,-28.92],[152.02,-28.87],[152.07,-28.7],[152.01,-28.64],[151.97,-28.53],[152.16,-28.44],[152.22,-28.44],[152.29,-28.39],[152.41,-28.34],[152.49,-28.26],[152.57,-28.32],[152.61,-28.29],[152.75,-28.36],[152.85,-28.32],[153.12,-28.35],[153.19,-28.26],[153.38,-28.24],[153.52,-28.14]],[[148.77,-35.49],[148.77,-35.64],[148.79,-35.71],[148.85,-35.75],[148.89,-35.74],[148.9,-35.82],[148.95,-35.89],[149.05,-35.91],[149.1,-35.83],[149.09,-35.61],[149.13,-35.58],[149.15,-35.51],[149.14,-35.44],[149.19,-35.38],[149.28,-35.35],[149.37,-35.36],[149.4,-35.33],[149.26,-35.27],[149.19,-35.22],[149.19,-35.18],[149.1,-35.15],[148.83,-35.31],[148.77,-35.49]],[[141,-29],[141.03,-34.04]],[[149.94,-37.5],[148.22,-36.8],[148.13,-36.78],[148.16,-36.73],[148.2,-36.63],[148.15,-36.55],[148.03,-36.18],[147.97,-36.05],[147.93,-36.02],[147.76,-35.96],[147.67,-35.95],[147.59,-35.98],[147.54,-35.98],[147.5,-35.96],[147.46,-35.95],[147.41,-35.97],[147.4,-35.97],[147.4,-35.98],[147.39,-35.98],[147.39,-35.99],[147.38,-35.99],[147.38,-36],[147.37,-36],[147.35,-36.05],[147.32,-36.07],[147.27,-36.05],[147.16,-36.04],[147.1,-36.05],[147.05,-36.11],[146.9,-36.1],[146.75,-36.06],[146.59,-36],[146.47,-35.99],[146.4,-36.03],[146.32,-36.05],[146.22,-36.06],[146.04,-36.02],[145.82,-35.98],[145.69,-35.93],[145.59,-35.86],[145.43,-35.83],[145.42,-35.84],[145.41,-35.84],[145.4,-35.84],[145.39,-35.84],[145.38,-35.84],[145.37,-35.84],[145.36,-35.84],[145.35,-35.84],[145.34,-35.84],[145.33,-35.84],[145.32,-35.84],[145.31,-35.84],[145.3,-35.84],[145.29,-35.84],[145.28,-35.84],[145.27,-35.84],[145.26,-35.84],[145.25,-35.84],[145.24,-35.84],[145.24,-35.85],[145.23,-35.85],[145.22,-35.85],[145.21,-35.85],[145.2,-35.85],[145.19,-35.85],[145.18,-35.85],[145.17,-35.85],[145.16,-35.85],[145.15,-35.85],[145.14,-35.86],[145.13,-35.86],[145.12,-35.86],[145.11,-35.86],[145.1,-35.86],[145.09,-35.86],[145.08,-35.86],[145.01,-35.88],[144.96,-35.92],[144.94,-35.98],[144.94,-36.03],[144.96,-36.07],[144.92,-36.11],[144.8,-36.13],[144.67,-36.09],[144.52,-35.99],[144.43,-35.9],[144.38,-35.82],[144.29,-35.73],[144.16,-35.63],[143.97,-35.53],[143.71,-35.41],[143.58,-35.33],[143.58,-35.28],[143.54,-35.23],[143.46,-35.2],[143.4,-35.17],[143.38,-35.13],[143.36,-35.03],[143.36,-34.88],[143.33,-34.79],[143.22,-34.73],[142.96,-34.69],[142.86,-34.66],[142.81,-34.61],[142.77,-34.59],[142.74,-34.6],[142.7,-34.65],[142.66,-34.74],[142.62,-34.78],[142.57,-34.78],[142.51,-34.71],[142.43,-34.59],[142.39,-34.48],[142.39,-34.39],[142.37,-34.33],[142.33,-34.32],[142.29,-34.29],[142.25,-34.22],[142.16,-34.17],[141.93,-34.12],[141.76,-34.11],[141.67,-34.14],[141.59,-34.19],[141.47,-34.18],[141.32,-34.11],[141.19,-34.07],[141.09,-34.07],[141.03,-34.04],[141,-34.02]],[[150.71,-35.12],[150.64,-35.15],[150.61,-35.19]],[[-66.83,-9.84],[-66.63,-9.93]],[[-84.32,34.99],[-84.29,35.2],[-84.26,35.25],[-84.23,35.26],[-84.13,35.26],[-84.06,35.29],[-84,35.41],[-83.87,35.51],[-83.81,35.54],[-83.72,35.56],[-83.51,35.58],[-83.28,35.68],[-83.12,35.77],[-82.99,35.8],[-82.95,35.83],[-82.92,35.88],[-82.9,35.94],[-82.89,35.95],[-82.81,35.95],[-82.76,36],[-82.7,36.03],[-82.64,36.05],[-82.61,36.05],[-82.6,36.03],[-82.59,35.99],[-82.58,35.97],[-82.55,35.97],[-82.52,35.98],[-82.48,36.01],[-82.37,36.1],[-82.29,36.13],[-82.18,36.15],[-82.1,36.11],[-82.05,36.12],[-81.91,36.31],[-81.85,36.34],[-81.81,36.35],[-81.73,36.36],[-81.73,36.41],[-81.71,36.48],[-81.7,36.53],[-81.66,36.61]],[[-74.7,41.36],[-74.78,41.33],[-74.81,41.3],[-74.84,41.27],[-74.91,41.16],[-75.03,41.05],[-75.12,41],[-75.12,40.97],[-75.07,40.88],[-75.08,40.86],[-75.11,40.8],[-75.17,40.78],[-75.19,40.74],[-75.19,40.69],[-75.19,40.6],[-75.17,40.58],[-75.1,40.54],[-75.03,40.42],[-74.98,40.41],[-74.73,40.15],[-74.91,40.08],[-75.02,40.02],[-75.07,39.98]],[[-71.52,45.01],[-71.53,44.99],[-71.51,44.91],[-71.62,44.77],[-71.62,44.73],[-71.57,44.61],[-71.57,44.58],[-71.59,44.57],[-71.61,44.51],[-71.64,44.48],[-71.68,44.45],[-71.83,44.37],[-71.87,44.35],[-72,44.33],[-72.03,44.3],[-72.06,44.12],[-72.11,44.01],[-72.11,43.97],[-72.17,43.88],[-72.22,43.79],[-72.3,43.71],[-72.34,43.62],[-72.36,43.59],[-72.38,43.53],[-72.41,43.33],[-72.44,43.22],[-72.47,43.04],[-72.5,42.99],[-72.52,42.97],[-72.55,42.89],[-72.55,42.86],[-72.54,42.83],[-72.48,42.77],[-72.47,42.73]],[[-82.59,38.42],[-82.6,38.43]],[[-82.61,38.45],[-82.59,38.42]],[[-81.97,37.54],[-82.1,37.57],[-82.28,37.69],[-82.39,37.83],[-82.43,37.89],[-82.47,37.94],[-82.48,37.98],[-82.59,38.1],[-82.62,38.15],[-82.62,38.18],[-82.59,38.24],[-82.58,38.27],[-82.59,38.42]],[[-81.97,37.54],[-82.34,37.3],[-82.52,37.21],[-82.68,37.14],[-82.69,37.13],[-82.73,37.05],[-82.83,36.98],[-82.89,36.91],[-83.04,36.85],[-83.15,36.76],[-83.42,36.68],[-83.57,36.65],[-83.67,36.61]],[[-89.74,31],[-89.76,30.89],[-89.84,30.73],[-89.84,30.69],[-89.82,30.64],[-89.82,30.61],[-89.79,30.57],[-89.74,30.53],[-89.69,30.46],[-89.64,30.35],[-89.63,30.3],[-89.59,30.22],[-89.57,30.21],[-89.55,30.2],[-89.52,30.19]],[[-96.56,45.94],[-96.57,46.02],[-96.56,46.14],[-96.59,46.23],[-96.6,46.27],[-96.62,46.33],[-96.73,46.47],[-96.76,46.59],[-96.79,46.65],[-96.8,46.8],[-96.79,46.84],[-96.77,46.92],[-96.82,46.97],[-96.83,47.02],[-96.85,47.37],[-96.86,47.42],[-96.86,47.59],[-96.95,47.76],[-96.99,47.82],[-97.01,47.89],[-97.01,47.93],[-97.08,48.04],[-97.13,48.17],[-97.12,48.29],[-97.14,48.37],[-97.13,48.44],[-97.14,48.54],[-97.13,48.59],[-97.13,48.68],[-97.23,48.99]],[[-94.05,33.55],[-94.1,33.58],[-94.19,33.59],[-94.24,33.58],[-94.29,33.59],[-94.33,33.57],[-94.36,33.56],[-94.38,33.57],[-94.39,33.59],[-94.43,33.6],[-94.48,33.65]],[[-75.42,39.82],[-75.51,39.84],[-75.63,39.84],[-75.68,39.83],[-75.71,39.8],[-75.78,39.72]],[[-81.09,35.16],[-81.06,35.15],[-81.05,35.13],[-81.05,35.09],[-81.05,35.07]],[[-82.78,35.09],[-82.74,35.08],[-82.65,35.13],[-82.46,35.18],[-82.39,35.21],[-82.36,35.2]],[[-120,60],[-120,59.62],[-120,59.23],[-120,58.85],[-120,58.46],[-120,58.08],[-120,57.69],[-120,57.31],[-120,56.92],[-120,56.54],[-120,56.15],[-120,55.77],[-120,55.38],[-120,55],[-120,54.61],[-120,54.23],[-120,53.84],[-119.97,53.8],[-119.92,53.77],[-119.9,53.72],[-119.88,53.71],[-119.81,53.7],[-119.73,53.63],[-119.74,53.62],[-119.89,53.61],[-119.92,53.61],[-119.92,53.6],[-119.9,53.57],[-119.89,53.52],[-119.86,53.51],[-119.82,53.49],[-119.72,53.4],[-119.68,53.37],[-119.65,53.36],[-119.59,53.37],[-119.43,53.36],[-119.4,53.35],[-119.31,53.24],[-119.26,53.21],[-119.05,53.14],[-119.02,53.14],[-119.02,53.2],[-118.99,53.24],[-118.91,53.21],[-118.8,53.15],[-118.77,53.12],[-118.77,53.07],[-118.73,53.06],[-118.68,53.03],[-118.67,52.97],[-118.63,52.91],[-118.61,52.9],[-118.5,52.89],[-118.48,52.88],[-118.43,52.84],[-118.41,52.78],[-118.36,52.74],[-118.33,52.71],[-118.32,52.67],[-118.35,52.62],[-118.29,52.56],[-118.27,52.52],[-118.23,52.48],[-118.25,52.44],[-118.24,52.41],[-118.22,52.39],[-118.19,52.38],[-118.06,52.41],[-118.04,52.43],[-118.03,52.47],[-118,52.49],[-117.88,52.43],[-117.76,52.39],[-117.73,52.38],[-117.73,52.35],[-117.82,52.27],[-117.79,52.23],[-117.75,52.21],[-117.59,52.14],[-117.38,52.14],[-117.35,52.16],[-117.32,52.16],[-117.24,52.05],[-117.08,51.93],[-117.04,51.89],[-116.94,51.74],[-116.91,51.71],[-116.83,51.72],[-116.81,51.72],[-116.81,51.75],[-116.79,51.77],[-116.76,51.79],[-116.72,51.8],[-116.67,51.79],[-116.63,51.76],[-116.57,51.65],[-116.5,51.61],[-116.46,51.57],[-116.41,51.54],[-116.38,51.5],[-116.31,51.45],[-116.28,51.35],[-116.25,51.32],[-116.18,51.3],[-116.13,51.27],[-116.05,51.24],[-116.04,51.23],[-116.04,51.22],[-116.01,51.15],[-116,51.13],[-115.94,51.1],[-115.79,51.07],[-115.62,50.96],[-115.6,50.94],[-115.59,50.91],[-115.64,50.87],[-115.63,50.86],[-115.43,50.76],[-115.4,50.73],[-115.39,50.73],[-115.38,50.73],[-115.36,50.73],[-115.35,50.73],[-115.33,50.72],[-115.31,50.7],[-115.3,50.67],[-115.31,50.66],[-115.31,50.64],[-115.31,50.63],[-115.27,50.59],[-115.22,50.56],[-115.21,50.55],[-115.19,50.56],[-115.13,50.58],[-115.09,50.58],[-115.05,50.58],[-114.99,50.55],[-114.79,50.36],[-114.72,50.13],[-114.67,50.06],[-114.65,50.02],[-114.65,49.99],[-114.68,49.95],[-114.68,49.93],[-114.64,49.8],[-114.64,49.73],[-114.69,49.64],[-114.74,49.6],[-114.73,49.59],[-114.72,49.57],[-114.68,49.56],[-114.6,49.55],[-114.58,49.54],[-114.58,49.52],[-114.59,49.45],[-114.59,49.42],[-114.57,49.39],[-114.48,49.33],[-114.43,49.27],[-114.39,49.25],[-114.38,49.23],[-114.35,49.21],[-114.19,49.17],[-114.16,49.15],[-114.13,49.09],[-114.06,49.04],[-114.05,49.01],[-114.06,48.99]],[[-123.82,60],[-123.84,60.02],[-123.88,60.04],[-123.99,60.04],[-124.01,60.05],[-124.01,60.06],[-123.99,60.1],[-124,60.13],[-124.1,60.23],[-124.18,60.32],[-124.2,60.35],[-124.23,60.45],[-124.25,60.47],[-124.4,60.49],[-124.47,60.57],[-124.6,60.66],[-124.61,60.68],[-124.61,60.7],[-124.51,60.79],[-124.51,60.82],[-124.58,60.95],[-124.62,60.96],[-124.81,60.96],[-124.84,60.95],[-124.86,60.92],[-124.88,60.86],[-125.15,60.84],[-125.23,60.83],[-125.32,60.79],[-125.38,60.79],[-125.71,60.84],[-125.86,60.89],[-125.9,60.89],[-125.93,60.88],[-125.96,60.87],[-126,60.81],[-126.06,60.82],[-126.1,60.83],[-126.11,60.86],[-126.16,60.87],[-126.22,60.86],[-126.23,60.84],[-126.23,60.81],[-126.26,60.79],[-126.3,60.78],[-126.35,60.78],[-126.52,60.8],[-126.67,60.76],[-126.77,60.77],[-126.83,60.76],[-126.86,60.77],[-126.89,60.8],[-126.89,60.83],[-126.91,60.86],[-126.92,60.88],[-126.91,60.95],[-126.94,61.05],[-126.96,61.06],[-127.05,61.05],[-127.09,61.07],[-127.1,61.08],[-127.08,61.09],[-127.03,61.13],[-127.01,61.2],[-127.02,61.24],[-127.07,61.37],[-127.12,61.4],[-127.17,61.46],[-127.23,61.49],[-127.3,61.51],[-127.47,61.51],[-127.61,61.53],[-127.66,61.55],[-127.71,61.59],[-127.81,61.62],[-127.99,61.71],[-128.02,61.78],[-128.05,61.81],[-128.09,61.84],[-128.21,61.87],[-128.23,61.88],[-128.26,61.93],[-128.37,61.99],[-128.4,62.03],[-128.56,62.12],[-128.62,62.12],[-128.68,62.11],[-128.78,62.07],[-128.81,62.06],[-128.84,62.07],[-128.88,62.11],[-128.91,62.12],[-129.01,62.13],[-129.14,62.13],[-129.21,62.14],[-129.25,62.15],[-129.27,62.17],[-129.26,62.18],[-129.24,62.2],[-129.23,62.22],[-129.24,62.24],[-129.29,62.29],[-129.29,62.32],[-129.24,62.37],[-129.25,62.39],[-129.29,62.41],[-129.3,62.43],[-129.29,62.44],[-129.2,62.47],[-129.19,62.49],[-129.21,62.51],[-129.45,62.58],[-129.49,62.6],[-129.49,62.62],[-129.53,62.67],[-129.54,62.69],[-129.62,62.71],[-129.64,62.73],[-129.64,62.76],[-129.66,62.78],[-129.72,62.83],[-129.73,62.86],[-129.71,62.89],[-129.71,62.93],[-129.62,63.04],[-129.61,63.06],[-129.63,63.07],[-129.73,63.07],[-129.83,63.09],[-129.87,63.16],[-129.91,63.19],[-129.98,63.22],[-130.06,63.26],[-130.13,63.28],[-130.14,63.29],[-130.1,63.32],[-129.95,63.38],[-129.91,63.41],[-129.84,63.49],[-129.86,63.52],[-129.89,63.55],[-129.95,63.59],[-129.98,63.62],[-130.06,63.64],[-130.08,63.65],[-130.1,63.68],[-130.11,63.7],[-130.14,63.7],[-130.24,63.68],[-130.28,63.69],[-130.3,63.7],[-130.3,63.72],[-130.26,63.74],[-130.15,63.76],[-130.12,63.77],[-130.12,63.79],[-130.14,63.81],[-130.28,63.82],[-130.36,63.85],[-130.51,63.92],[-130.66,63.95],[-130.76,63.99],[-130.79,64.03],[-130.85,64.05],[-130.87,64.08],[-130.93,64.13],[-130.94,64.14],[-130.91,64.17],[-130.91,64.19],[-130.93,64.22],[-130.98,64.26],[-131.01,64.27],[-131.03,64.3],[-131.02,64.32],[-131.11,64.4],[-131.27,64.45],[-131.36,64.46],[-131.4,64.45],[-131.45,64.42],[-131.51,64.39],[-131.59,64.38],[-131.76,64.38],[-131.8,64.39],[-131.8,64.41],[-131.79,64.43],[-131.73,64.49],[-131.72,64.52],[-131.73,64.53],[-131.75,64.54],[-131.89,64.58],[-132.05,64.68],[-132.11,64.7],[-132.32,64.76],[-132.4,64.78],[-132.55,64.78],[-132.59,64.79],[-132.6,64.81],[-132.6,64.83],[-132.58,64.84],[-132.5,64.88],[-132.5,64.91],[-132.5,64.96],[-132.48,64.97],[-132.38,65.02],[-132.35,65.04],[-132.35,65.06],[-132.38,65.08],[-132.52,65.09],[-132.54,65.11],[-132.54,65.17],[-132.58,65.18],[-132.61,65.18],[-132.71,65.17],[-132.75,65.17],[-132.77,65.18],[-132.77,65.2],[-132.76,65.23],[-132.6,65.28],[-132.57,65.3],[-132.54,65.34],[-132.35,65.44],[-132.27,65.54],[-132.19,65.6],[-132.2,65.63],[-132.3,65.72],[-132.38,65.77],[-132.49,65.82],[-132.53,65.83],[-132.55,65.86],[-132.54,65.89],[-132.34,65.96],[-132.34,65.98],[-132.37,65.99],[-132.48,65.99],[-132.58,66.02],[-132.61,66.03],[-132.71,66],[-132.77,65.97],[-132.82,65.93],[-132.9,65.91],[-132.95,65.92],[-132.97,65.93],[-132.94,65.98],[-132.92,66],[-132.92,66.02],[-132.94,66.03],[-133.04,66.03],[-133.23,66.01],[-133.41,65.96],[-133.5,65.96],[-133.59,65.96],[-133.62,65.97],[-133.62,66.01],[-133.65,66.05],[-133.68,66.07],[-133.68,66.1],[-133.66,66.11],[-133.59,66.15],[-133.57,66.18],[-133.57,66.21],[-133.57,66.25],[-133.58,66.29],[-133.61,66.3],[-133.65,66.3],[-133.76,66.3],[-133.79,66.3],[-133.8,66.33],[-133.79,66.35],[-133.76,66.42],[-133.74,66.44],[-133.71,66.44],[-133.67,66.45],[-133.65,66.45],[-133.65,66.47],[-133.66,66.51],[-133.65,66.54],[-133.64,66.57],[-133.65,66.59],[-133.73,66.63],[-133.76,66.65],[-133.77,66.67],[-133.77,66.68],[-133.8,66.71],[-133.81,66.73],[-133.8,66.75],[-133.78,66.79],[-133.79,66.82],[-133.85,66.86],[-133.92,66.9],[-134.03,66.94],[-134.05,66.97],[-134.06,67],[-134.12,67],[-134.4,67],[-134.69,67],[-134.98,67],[-135.27,67],[-135.55,67],[-135.84,67],[-136.13,67],[-136.17,67.02],[-136.19,67.04],[-136.22,67.09],[-136.22,67.13],[-136.22,67.16],[-136.22,67.18],[-136.15,67.23],[-136.11,67.29],[-136.11,67.3],[-136.13,67.35],[-136.14,67.38],[-136.16,67.39],[-136.18,67.42],[-136.18,67.45],[-136.17,67.51],[-136.21,67.58],[-136.23,67.6],[-136.26,67.62],[-136.4,67.67],[-136.43,67.7],[-136.45,67.75],[-136.45,68.04],[-136.45,68.33],[-136.45,68.62],[-136.44,68.9]],[[-68.38,47.59],[-68.39,47.56],[-68.43,47.53],[-68.5,47.48],[-68.63,47.42],[-69.05,47.29]],[[-67.61,48],[-67.61,47.97],[-67.58,47.94],[-67.36,47.85],[-67.31,47.89],[-67.19,47.89],[-67.06,47.92],[-66.95,47.9],[-66.93,47.96],[-66.84,48],[-66.7,48.02]],[[-120,42],[-120.26,42],[-120.53,42],[-120.79,42],[-121.06,42],[-121.32,42],[-121.58,42],[-121.85,42],[-122.11,42],[-122.37,42],[-122.64,42],[-122.9,42],[-123.16,42],[-123.43,42],[-123.69,42],[-123.96,42],[-124.23,42]],[[-111.05,44.5],[-111.12,44.53],[-111.16,44.56],[-111.2,44.59],[-111.27,44.69],[-111.3,44.72],[-111.34,44.74],[-111.37,44.75],[-111.42,44.73],[-111.45,44.71],[-111.46,44.67],[-111.49,44.62],[-111.49,44.58],[-111.47,44.56],[-111.48,44.55],[-111.5,44.54],[-111.66,44.56],[-111.8,44.54],[-111.89,44.55],[-112.07,44.55],[-112.23,44.56],[-112.29,44.55],[-112.32,44.53],[-112.36,44.48],[-112.38,44.47],[-112.39,44.47],[-112.65,44.5],[-112.72,44.5],[-112.79,44.46],[-112.81,44.44],[-112.82,44.41],[-112.83,44.4],[-112.85,44.4],[-112.91,44.42],[-112.97,44.45],[-113,44.48],[-113.01,44.54],[-113.05,44.61],[-113.06,44.67],[-113.09,44.72],[-113.14,44.77],[-113.19,44.8],[-113.23,44.81],[-113.32,44.8],[-113.34,44.81],[-113.43,44.87],[-113.46,44.9],[-113.47,44.93],[-113.44,44.99],[-113.45,45.03],[-113.47,45.07],[-113.5,45.11],[-113.56,45.14],[-113.61,45.21],[-113.7,45.3],[-113.72,45.38],[-113.76,45.44],[-113.77,45.5],[-113.8,45.54],[-113.8,45.59],[-113.8,45.6],[-113.81,45.61],[-113.87,45.63],[-113.94,45.68],[-113.98,45.69],[-113.99,45.69],[-114,45.68],[-114.01,45.66],[-114.12,45.58],[-114.21,45.54],[-114.26,45.51],[-114.3,45.49],[-114.32,45.49],[-114.35,45.5],[-114.45,45.55],[-114.53,45.58],[-114.54,45.59],[-114.53,45.63],[-114.5,45.69],[-114.53,45.78],[-114.52,45.82],[-114.49,45.84],[-114.41,45.87],[-114.4,45.89],[-114.42,45.98],[-114.46,46.02],[-114.48,46.04],[-114.46,46.11],[-114.49,46.16],[-114.45,46.2],[-114.44,46.27],[-114.41,46.34],[-114.38,46.45],[-114.39,46.5],[-114.35,46.55],[-114.33,46.6],[-114.33,46.64],[-114.34,46.66],[-114.35,46.67],[-114.38,46.67],[-114.52,46.65],[-114.56,46.65],[-114.6,46.66],[-114.62,46.68],[-114.63,46.72],[-114.66,46.75],[-114.68,46.75],[-114.74,46.73],[-114.75,46.73],[-114.76,46.74],[-114.79,46.78],[-114.89,46.84],[-114.94,46.92],[-115.03,46.99],[-115.13,47.08],[-115.31,47.23],[-115.35,47.26],[-115.49,47.31],[-115.59,47.38],[-115.7,47.44],[-115.71,47.45],[-115.71,47.46],[-115.68,47.47],[-115.67,47.5],[-115.71,47.55],[-115.69,47.61],[-115.72,47.68],[-115.73,47.71],[-115.81,47.78],[-115.86,47.84],[-115.94,47.9],[-116.05,48],[-116.05,48.25],[-116.05,48.5],[-116.05,48.75],[-116.05,48.99]],[[-111.05,44.5],[-111.05,44.34],[-111.05,44.19],[-111.05,44.03],[-111.05,43.87],[-111.05,43.72],[-111.05,43.56],[-111.05,43.41],[-111.05,43.25],[-111.05,43.09],[-111.05,42.94],[-111.05,42.78],[-111.05,42.63],[-111.05,42.47],[-111.05,42.31],[-111.05,42.16],[-111.05,42]],[[-111.05,44.5],[-111.05,44.62],[-111.05,44.75],[-111.05,44.88],[-111.05,45],[-110.83,45],[-110.61,45],[-110.39,45],[-110.17,45],[-109.95,45],[-109.74,45],[-109.52,45],[-109.3,45],[-109.08,45],[-108.86,45],[-108.64,45],[-108.42,45],[-108.2,45],[-107.98,45],[-107.76,45],[-107.54,45],[-107.32,45],[-107.11,45],[-106.89,45],[-106.67,45],[-106.45,45],[-106.23,45],[-106.01,45],[-105.79,45],[-105.57,45],[-105.35,45],[-105.13,45],[-104.91,45],[-104.69,45],[-104.48,45],[-104.26,45],[-104.04,45]],[[-117.02,42],[-117.39,42],[-117.76,42],[-118.14,42],[-118.51,42],[-118.88,42],[-119.25,42],[-119.63,42],[-120,42]],[[-117.02,42],[-116.64,42],[-116.27,42],[-115.9,42],[-115.53,42],[-115.16,42],[-114.79,42],[-114.41,42],[-114.04,42]],[[-111.05,42],[-111.24,42],[-111.42,42],[-111.61,42],[-111.8,42],[-111.99,42],[-112.17,42],[-112.36,42],[-112.55,42],[-112.73,42],[-112.92,42],[-113.11,42],[-113.29,42],[-113.48,42],[-113.67,42],[-113.86,42],[-114.04,42]],[[-111.05,42],[-111.05,41.88],[-111.05,41.75],[-111.05,41.63],[-111.05,41.5],[-111.05,41.38],[-111.05,41.25],[-111.05,41.13],[-111.05,41],[-110.8,41],[-110.55,41],[-110.3,41],[-110.05,41],[-109.8,41],[-109.55,41],[-109.3,41],[-109.05,41]],[[-114.04,42],[-114.04,41.84],[-114.04,41.69],[-114.04,41.53],[-114.04,41.38],[-114.04,41.22],[-114.04,41.06],[-114.04,40.91],[-114.04,40.75],[-114.04,40.6],[-114.04,40.44],[-114.04,40.28],[-114.04,40.13],[-114.04,39.97],[-114.04,39.81],[-114.04,39.66],[-114.04,39.5],[-114.04,39.35],[-114.04,39.19],[-114.04,39.03],[-114.04,38.88],[-114.04,38.72],[-114.04,38.57],[-114.04,38.41],[-114.04,38.25],[-114.04,38.1],[-114.04,37.94],[-114.04,37.78],[-114.04,37.63],[-114.04,37.47],[-114.04,37.32],[-114.04,37.16],[-114.04,37]],[[-114.04,37],[-113.73,37],[-113.42,37],[-113.1,37],[-112.79,37],[-112.48,37],[-112.17,37],[-111.86,37],[-111.54,37],[-111.23,37],[-110.92,37],[-110.61,37],[-110.3,37],[-109.98,37],[-109.67,37],[-109.36,37],[-109.05,37]],[[-109.05,37],[-109.05,36.65],[-109.05,36.29],[-109.05,35.94],[-109.05,35.58],[-109.05,35.23],[-109.05,34.87],[-109.05,34.52],[-109.05,34.16],[-109.05,33.81],[-109.05,33.46],[-109.05,33.1],[-109.05,32.75],[-109.05,32.39],[-109.05,32.04],[-109.05,31.68],[-109.05,31.33]],[[-109.05,41],[-108.73,41],[-108.42,41],[-108.1,41],[-107.79,41],[-107.48,41],[-107.16,41],[-106.85,41],[-106.53,41],[-106.22,41],[-105.91,41],[-105.59,41],[-105.28,41],[-104.96,41],[-104.65,41],[-104.34,41],[-104.02,41]],[[-109.05,41],[-109.05,40.75],[-109.05,40.5],[-109.05,40.25],[-109.05,40],[-109.05,39.75],[-109.05,39.5],[-109.05,39.25],[-109.05,39],[-109.05,38.75],[-109.05,38.5],[-109.05,38.25],[-109.05,38],[-109.05,37.75],[-109.05,37.5],[-109.05,37.25],[-109.05,37]],[[-103,37],[-103.38,37],[-103.76,37],[-104.13,37],[-104.51,37],[-104.89,37],[-105.27,37],[-105.65,37],[-106.02,37],[-106.4,37],[-106.78,37],[-107.16,37],[-107.54,37],[-107.91,37],[-108.29,37],[-108.67,37],[-109.05,37]],[[-104.01,45.94],[-104.01,46.13],[-104.01,46.32],[-104.02,46.52],[-104.02,46.71],[-104.02,46.9],[-104.02,47.09],[-104.02,47.28],[-104.02,47.47],[-104.02,47.66],[-104.02,47.85],[-104.03,48.04],[-104.03,48.23],[-104.03,48.42],[-104.03,48.61],[-104.03,48.8],[-104.03,48.99]],[[-104.04,45],[-104.03,45],[-104.02,45],[-104.01,45],[-104.01,45.01],[-104,45.01],[-104.01,45.25],[-104.01,45.48],[-104.01,45.71],[-104.01,45.94]],[[-104.03,43],[-104.03,43.25],[-104.03,43.5],[-104.03,43.75],[-104.03,44],[-104.03,44.25],[-104.04,44.5],[-104.04,44.75],[-104.04,45]],[[-96.56,45.94],[-96.79,45.94],[-97.02,45.94],[-97.26,45.94],[-97.49,45.94],[-97.72,45.94],[-97.95,45.94],[-98.19,45.94],[-98.42,45.94],[-98.65,45.94],[-98.89,45.94],[-99.12,45.94],[-99.35,45.94],[-99.58,45.94],[-99.82,45.94],[-100.05,45.94],[-100.28,45.94],[-100.52,45.94],[-100.75,45.94],[-100.98,45.94],[-101.22,45.94],[-101.45,45.94],[-101.68,45.94],[-101.91,45.94],[-102.15,45.94],[-102.38,45.94],[-102.61,45.94],[-102.85,45.94],[-103.08,45.94],[-103.31,45.94],[-103.55,45.94],[-103.78,45.94],[-104.01,45.94]],[[-104.02,41],[-104.02,41.25],[-104.02,41.5],[-104.02,41.75],[-104.03,42],[-104.03,42.25],[-104.03,42.5],[-104.03,42.75],[-104.03,43]],[[-102.02,40],[-102.02,40.13],[-102.02,40.25],[-102.02,40.38],[-102.02,40.5],[-102.02,40.63],[-102.02,40.75],[-102.02,40.88],[-102.03,41],[-102.27,41],[-102.52,41],[-102.77,41],[-103.02,41],[-103.27,41],[-103.52,41],[-103.77,41],[-104.02,41]],[[-102.01,37],[-102.01,37.19],[-102.01,37.38],[-102.01,37.56],[-102.02,37.75],[-102.02,37.94],[-102.02,38.13],[-102.02,38.31],[-102.02,38.5],[-102.02,38.69],[-102.02,38.88],[-102.02,39.06],[-102.02,39.25],[-102.02,39.44],[-102.02,39.63],[-102.02,39.81],[-102.02,40]],[[-95.35,40],[-95.53,40],[-95.74,40],[-95.95,40],[-96.16,40],[-96.37,40],[-96.57,40],[-96.78,40],[-96.99,40],[-97.2,40],[-97.41,40],[-97.62,40],[-97.83,40],[-98.04,40],[-98.25,40],[-98.46,40],[-98.67,40],[-98.88,40],[-99.09,40],[-99.3,40],[-99.51,40],[-99.72,40],[-99.93,40],[-100.14,40],[-100.35,40],[-100.56,40],[-100.77,40],[-100.98,40],[-101.19,40],[-101.4,40],[-101.61,40],[-101.81,40],[-102.02,40]],[[-103,36.5],[-103,36.63],[-103,36.75],[-103,36.88],[-103,37]],[[-102.01,37],[-102.26,37],[-102.51,37],[-102.75,37],[-103,37]],[[-94.48,33.65],[-94.71,33.7],[-94.77,33.73],[-94.87,33.77],[-94.96,33.84],[-95.15,33.94],[-95.22,33.96],[-95.24,33.96],[-95.28,33.91],[-95.37,33.87],[-95.43,33.87],[-95.52,33.89],[-95.54,33.9],[-95.56,33.93],[-95.59,33.95],[-95.62,33.93],[-95.76,33.89],[-95.78,33.86],[-95.86,33.86],[-95.94,33.88],[-96.14,33.82],[-96.21,33.77],[-96.28,33.76],[-96.32,33.71],[-96.34,33.72],[-96.41,33.78],[-96.49,33.79],[-96.59,33.85],[-96.6,33.9],[-96.61,33.91],[-96.63,33.91],[-96.65,33.91],[-96.69,33.86],[-96.72,33.85],[-96.75,33.85],[-96.85,33.88],[-96.89,33.93],[-96.91,33.95],[-96.93,33.95],[-96.98,33.94],[-97,33.88],[-97.02,33.87],[-97.06,33.86],[-97.06,33.83],[-97.1,33.75],[-97.12,33.73],[-97.15,33.74],[-97.17,33.76],[-97.19,33.78],[-97.2,33.81],[-97.19,33.87],[-97.19,33.89],[-97.21,33.9],[-97.26,33.87],[-97.31,33.87],[-97.36,33.84],[-97.4,33.83],[-97.43,33.84],[-97.48,33.89],[-97.57,33.92],[-97.61,33.97],[-97.62,33.99],[-97.64,33.99],[-97.66,33.99],[-97.69,33.97],[-97.8,33.9],[-97.84,33.88],[-97.88,33.87],[-97.92,33.88],[-97.95,33.9],[-97.95,33.97],[-97.97,33.99],[-98.07,34.04],[-98.09,34.08],[-98.1,34.15],[-98.21,34.14],[-98.36,34.14],[-98.42,34.09],[-98.45,34.08],[-98.49,34.09],[-98.61,34.16],[-98.73,34.15],[-98.8,34.15],[-98.97,34.21],[-99.1,34.21],[-99.16,34.22],[-99.19,34.24],[-99.2,34.32],[-99.25,34.39],[-99.27,34.41],[-99.36,34.46],[-99.37,34.46],[-99.38,34.45],[-99.4,34.39],[-99.43,34.39],[-99.54,34.4],[-99.63,34.39],[-99.69,34.42],[-99.87,34.54],[-99.94,34.58],[-100,34.59],[-100,34.71],[-100,34.83],[-100,34.95],[-100,35.07],[-100,35.18],[-100,35.3],[-100,35.42],[-100,35.54],[-100,35.66],[-100,35.78],[-100,35.9],[-100,36.02],[-100,36.14],[-100,36.26],[-100,36.38],[-100,36.5],[-100.19,36.5],[-100.38,36.5],[-100.56,36.5],[-100.75,36.5],[-100.94,36.5],[-101.13,36.5],[-101.31,36.5],[-101.5,36.5],[-101.69,36.5],[-101.88,36.5],[-102.06,36.5],[-102.25,36.5],[-102.44,36.5],[-102.63,36.5],[-102.81,36.5],[-103,36.5]],[[-94.62,37],[-94.85,37],[-95.08,37],[-95.31,37],[-95.54,37],[-95.77,37],[-96,37],[-96.24,37],[-96.47,37],[-96.7,37],[-96.93,37],[-97.16,37],[-97.39,37],[-97.62,37],[-97.85,37],[-98.08,37],[-98.32,37],[-98.55,37],[-98.78,37],[-99.01,37],[-99.24,37],[-99.47,37],[-99.7,37],[-99.93,37],[-100.16,37],[-100.4,37],[-100.63,37],[-100.86,37],[-101.09,37],[-101.32,37],[-101.55,37],[-101.78,37],[-102.01,37]],[[-96.45,43.5],[-96.6,43.5],[-96.58,43.43],[-96.54,43.37],[-96.53,43.34],[-96.54,43.31],[-96.57,43.28],[-96.56,43.24],[-96.56,43.23],[-96.49,43.21],[-96.47,43.17],[-96.46,43.13],[-96.46,43.1],[-96.5,43.04],[-96.51,42.97],[-96.56,42.86],[-96.62,42.79],[-96.63,42.76],[-96.62,42.73],[-96.54,42.66],[-96.53,42.63],[-96.51,42.59],[-96.48,42.51]],[[-94.62,39.09],[-94.62,38.96],[-94.62,38.83],[-94.62,38.7],[-94.62,38.56],[-94.62,38.43],[-94.62,38.3],[-94.62,38.17],[-94.62,38.04],[-94.62,37.91],[-94.62,37.78],[-94.62,37.65],[-94.62,37.52],[-94.62,37.39],[-94.62,37.26],[-94.62,37.13],[-94.62,37]],[[-94.62,39.12],[-94.62,39.09]],[[-94.62,37],[-94.62,36.88],[-94.62,36.75],[-94.62,36.63],[-94.62,36.5]],[[-95.77,40.6],[-95.52,40.6],[-95.26,40.6],[-95.01,40.61],[-94.76,40.61],[-94.51,40.61],[-94.25,40.61],[-94,40.61],[-93.75,40.61],[-93.5,40.61],[-93.25,40.62],[-92.99,40.62],[-92.74,40.62],[-92.49,40.62],[-92.24,40.62],[-91.98,40.62],[-91.73,40.62],[-91.68,40.55],[-91.63,40.53],[-91.62,40.51],[-91.55,40.47],[-91.53,40.43],[-91.44,40.38]],[[-94.04,33.01],[-94.04,33.15],[-94.04,33.28],[-94.05,33.42],[-94.05,33.55]],[[-94.62,36.5],[-94.6,36.36],[-94.57,36.22],[-94.55,36.08],[-94.53,35.94],[-94.51,35.8],[-94.48,35.67],[-94.46,35.53],[-94.44,35.39],[-94.44,35.28],[-94.44,35.17],[-94.45,35.06],[-94.45,34.95],[-94.45,34.84],[-94.46,34.74],[-94.46,34.63],[-94.46,34.52],[-94.46,34.41],[-94.47,34.3],[-94.47,34.19],[-94.47,34.08],[-94.48,33.97],[-94.48,33.87],[-94.48,33.76],[-94.48,33.65]],[[-94.62,36.5],[-94.34,36.5],[-94.06,36.5],[-93.78,36.5],[-93.5,36.5],[-93.23,36.5],[-92.95,36.5],[-92.67,36.5],[-92.39,36.5],[-92.11,36.5],[-91.83,36.5],[-91.55,36.5],[-91.28,36.5],[-91,36.5],[-90.72,36.5],[-90.44,36.5],[-90.16,36.5],[-90.12,36.42],[-90.07,36.37],[-90.07,36.33],[-90.08,36.3],[-90.15,36.22],[-90.22,36.18],[-90.25,36.14],[-90.3,36.1],[-90.38,35.99],[-90.22,35.99],[-90.05,36],[-89.89,36],[-89.7,36]],[[-80.52,40.65],[-80.52,40.75],[-80.52,40.86],[-80.52,40.96],[-80.52,41.07],[-80.52,41.17],[-80.52,41.28],[-80.52,41.38],[-80.52,41.49],[-80.52,41.59],[-80.52,41.7],[-80.52,41.8],[-80.52,41.91],[-80.52,42.01],[-80.52,42.12],[-80.52,42.22],[-80.52,42.32]],[[-79.48,39.72],[-79.61,39.72],[-79.74,39.72],[-79.87,39.72],[-80,39.72],[-80.13,39.72],[-80.26,39.72],[-80.39,39.72],[-80.52,39.72],[-80.52,39.84],[-80.52,39.95],[-80.52,40.07],[-80.52,40.19],[-80.52,40.3],[-80.52,40.42],[-80.52,40.53],[-80.52,40.65]],[[-93.79,29.98],[-93.73,30.08],[-93.71,30.11],[-93.72,30.28],[-93.75,30.34],[-93.75,30.38],[-93.72,30.47],[-93.72,30.56],[-93.67,30.66],[-93.62,30.71],[-93.58,30.82],[-93.57,30.89],[-93.55,30.95],[-93.56,31],[-93.53,31.05],[-93.55,31.1],[-93.56,31.18],[-93.6,31.21],[-93.67,31.32],[-93.66,31.37],[-93.74,31.48],[-93.74,31.51],[-93.81,31.57],[-93.82,31.6],[-93.83,31.75],[-93.85,31.79],[-93.91,31.88],[-94.04,32],[-94.04,32.13],[-94.04,32.25],[-94.04,32.38],[-94.04,32.51],[-94.04,32.63],[-94.04,32.76],[-94.04,32.89],[-94.04,33.01]],[[-94.04,33.01],[-93.86,33.01],[-93.68,33.01],[-93.5,33.01],[-93.32,33.01],[-93.14,33.01],[-92.96,33.01],[-92.78,33.01],[-92.6,33.01],[-92.42,33.01],[-92.24,33.01],[-92.06,33.01],[-91.89,33.01],[-91.71,33.01],[-91.53,33.01],[-91.35,33.02],[-91.15,33.02]],[[-90.29,35],[-90.04,35],[-89.77,35],[-89.51,35],[-89.24,35],[-88.98,35],[-88.71,35],[-88.44,35],[-88.17,35]],[[-85.01,31],[-85.33,31],[-85.65,31],[-85.98,31],[-86.3,31],[-86.62,31],[-86.95,31],[-87.27,31],[-87.59,31],[-87.61,30.93],[-87.6,30.86],[-87.57,30.8],[-87.42,30.67],[-87.41,30.64],[-87.43,30.55],[-87.43,30.48],[-87.44,30.44],[-87.48,30.41],[-87.49,30.38]],[[-84.32,34.99],[-84.65,34.99],[-84.97,34.99],[-85.3,35],[-85.62,35]],[[-83.11,35],[-83.42,35],[-83.72,34.99],[-84.02,34.99],[-84.32,34.99]],[[-82.78,35.09],[-82.94,35.04],[-83.1,35],[-83.11,35]],[[-81.05,35.07],[-80.93,35.11],[-80.88,35.06],[-80.79,34.96],[-80.79,34.91],[-80.78,34.83],[-80.64,34.82],[-80.5,34.82],[-80.36,34.82],[-80.22,34.81],[-80.08,34.81],[-79.94,34.8],[-79.79,34.8],[-79.65,34.8],[-79.52,34.68],[-79.38,34.57],[-79.25,34.45],[-79.11,34.34],[-78.98,34.23],[-78.84,34.11],[-78.71,34],[-78.56,33.88]],[[-82.36,35.2],[-82.2,35.2],[-82.04,35.19],[-81.88,35.18],[-81.72,35.18],[-81.56,35.17],[-81.4,35.17],[-81.25,35.16],[-81.09,35.16]],[[-71.8,42.01],[-71.73,42.01],[-71.62,42.01],[-71.52,42.02],[-71.46,42.02],[-71.39,42.02],[-71.38,41.97],[-71.38,41.9],[-71.34,41.89],[-71.34,41.84],[-71.34,41.8],[-71.3,41.77],[-71.27,41.75],[-71.23,41.71]],[[-73.48,42.06],[-73.4,42.05],[-73.31,42.05],[-73.23,42.05],[-73.14,42.04],[-73.06,42.04],[-72.98,42.04],[-72.89,42.04],[-72.81,42.03],[-72.81,42.01],[-72.76,42.01],[-72.76,42.03],[-72.64,42.03],[-72.52,42.03],[-72.4,42.03],[-72.28,42.03],[-72.16,42.03],[-72.04,42.03],[-71.92,42.02],[-71.8,42.02],[-71.8,42.01]],[[-71.8,42.01],[-71.8,41.96],[-71.8,41.88],[-71.8,41.83],[-71.8,41.75],[-71.8,41.67],[-71.8,41.59],[-71.8,41.52],[-71.8,41.48],[-71.8,41.42],[-71.83,41.39],[-71.84,41.34]],[[-81.97,37.54],[-81.96,37.51],[-81.97,37.47],[-81.94,37.43],[-81.91,37.37],[-81.88,37.33],[-81.83,37.3],[-81.75,37.27],[-81.66,37.22],[-81.59,37.21],[-81.56,37.21],[-81.49,37.26],[-81.42,37.28],[-81.35,37.33],[-81.23,37.26],[-81.18,37.26],[-81.06,37.29],[-80.94,37.3],[-80.92,37.31],[-80.87,37.34],[-80.87,37.4],[-80.86,37.41],[-80.84,37.42],[-80.82,37.42],[-80.77,37.4],[-80.72,37.4],[-80.51,37.47],[-80.49,37.46],[-80.46,37.43],[-80.37,37.47],[-80.32,37.51],[-80.29,37.57],[-80.25,37.62],[-80.26,37.65],[-80.29,37.68],[-80.25,37.75],[-80.19,37.82],[-79.97,38.05],[-79.9,38.18],[-79.81,38.27],[-79.78,38.34],[-79.72,38.4],[-79.67,38.54],[-79.64,38.57],[-79.6,38.58],[-79.56,38.56],[-79.52,38.53],[-79.5,38.49],[-79.4,38.45],[-79.3,38.45],[-79.24,38.48],[-79.2,38.53],[-79.15,38.62],[-79.1,38.67],[-79.07,38.74],[-79.04,38.79],[-78.99,38.82],[-78.87,38.82],[-78.81,38.86],[-78.76,38.91],[-78.73,38.92],[-78.69,38.92],[-78.58,39],[-78.44,39.16],[-78.4,39.26],[-78.37,39.34],[-78.35,39.41],[-78.32,39.45],[-78.19,39.37],[-78.12,39.32],[-77.95,39.22],[-77.84,39.15],[-77.79,39.23],[-77.73,39.35]],[[-79.48,39.72],[-79.25,39.72],[-79.02,39.72],[-78.79,39.72],[-78.55,39.72],[-78.32,39.72],[-78.09,39.72],[-77.86,39.72],[-77.63,39.72],[-77.4,39.72],[-77.17,39.72],[-76.94,39.72],[-76.71,39.72],[-76.48,39.72],[-76.25,39.72],[-76.02,39.72],[-75.78,39.72]],[[-79.48,39.72],[-79.48,39.59],[-79.48,39.47],[-79.49,39.34],[-79.49,39.21]],[[-75.78,39.72],[-75.78,39.56],[-75.77,39.41],[-75.76,39.25],[-75.75,39.09],[-75.74,38.93],[-75.73,38.77],[-75.72,38.61],[-75.71,38.46],[-75.7,38.46],[-75.69,38.46],[-75.59,38.45],[-75.37,38.45],[-75.14,38.45],[-75.04,38.46]],[[-75.66,37.95],[-75.62,38],[-75.47,38.01],[-75.38,38.02],[-75.25,38.04],[-75.22,38.04]],[[-77.02,38.81],[-76.93,38.89],[-76.99,38.95],[-77.04,39.01],[-77.12,38.94]],[[-74.7,41.36],[-74.72,41.39],[-74.76,41.42],[-74.94,41.47],[-74.98,41.51],[-75.02,41.55],[-75.05,41.61],[-75.07,41.67],[-75.07,41.71],[-75.05,41.77],[-75.09,41.8],[-75.1,41.83],[-75.12,41.85],[-75.24,41.89],[-75.27,41.95],[-75.35,42],[-75.49,42],[-75.63,42],[-75.76,42],[-75.9,42],[-76.04,42],[-76.18,42],[-76.32,42],[-76.45,42],[-76.59,42],[-76.73,42],[-76.87,42],[-77.01,42],[-77.14,42],[-77.28,42],[-77.42,42],[-77.56,42],[-77.7,42],[-77.83,42],[-77.97,42],[-78.11,42],[-78.25,42],[-78.38,42],[-78.52,42],[-78.66,42],[-78.8,42],[-78.94,42],[-79.07,42],[-79.21,42],[-79.35,42],[-79.49,42],[-79.63,42],[-79.76,42],[-79.76,42.14],[-79.76,42.27],[-79.76,42.4],[-79.76,42.54]],[[-73.25,42.75],[-73.29,42.67],[-73.32,42.58],[-73.35,42.5],[-73.38,42.42],[-73.41,42.33],[-73.44,42.25],[-73.48,42.16],[-73.51,42.08],[-73.48,42.06]],[[-73.48,42.06],[-73.49,41.96],[-73.5,41.87],[-73.5,41.77],[-73.51,41.68],[-73.52,41.58],[-73.53,41.49],[-73.54,41.39],[-73.54,41.3],[-73.51,41.26],[-73.48,41.22],[-73.52,41.2],[-73.58,41.17],[-73.64,41.14],[-73.72,41.1],[-73.68,41.05],[-73.63,40.99]],[[-74.7,41.36],[-74.6,41.31],[-74.5,41.27],[-74.4,41.22],[-74.3,41.17],[-74.2,41.13],[-74.11,41.08],[-74.01,41.04],[-73.91,40.99]],[[-72.47,42.73],[-72.57,42.73],[-72.66,42.74],[-72.76,42.74],[-72.86,42.74],[-72.96,42.74],[-73.06,42.75],[-73.16,42.75],[-73.25,42.75]],[[-73.25,42.75],[-73.28,42.81],[-73.27,42.86],[-73.26,42.94],[-73.26,43.03],[-73.26,43.13],[-73.26,43.27],[-73.25,43.36],[-73.25,43.44],[-73.25,43.55],[-73.31,43.62],[-73.33,43.63],[-73.35,43.62],[-73.39,43.58],[-73.4,43.58],[-73.42,43.59],[-73.41,43.63],[-73.38,43.76],[-73.37,43.8],[-73.38,43.88],[-73.42,44.04],[-73.43,44.07],[-73.41,44.13],[-73.38,44.19],[-73.33,44.24],[-73.32,44.27],[-73.32,44.37],[-73.31,44.46],[-73.37,44.6],[-73.35,44.78],[-73.37,44.86],[-73.35,44.94],[-73.35,45.01]],[[-70.81,42.88],[-70.92,42.88],[-70.97,42.87],[-71.08,42.83],[-71.14,42.81],[-71.24,42.73],[-71.33,42.7],[-71.47,42.71],[-71.61,42.71],[-71.76,42.71],[-71.9,42.72],[-72.04,42.72],[-72.18,42.72],[-72.32,42.73],[-72.47,42.73]],[[-70.73,43.07],[-70.81,43.16],[-70.83,43.24],[-70.92,43.33],[-70.96,43.39],[-70.97,43.46],[-70.96,43.53],[-70.97,43.64],[-70.98,43.75],[-70.99,43.86],[-70.99,43.98],[-71,44.09],[-71.01,44.2],[-71.02,44.31],[-71.02,44.42],[-71.03,44.53],[-71.04,44.64],[-71.05,44.75],[-71.05,44.86],[-71.06,44.97],[-71.07,45.08],[-71.08,45.19],[-71.08,45.29]],[[-96.45,43.5],[-96.45,43.73],[-96.45,43.95],[-96.45,44.17],[-96.45,44.4],[-96.45,44.62],[-96.45,44.85],[-96.45,45.07],[-96.45,45.3],[-96.53,45.37],[-96.7,45.43],[-96.74,45.47],[-96.81,45.56],[-96.85,45.6],[-96.85,45.63],[-96.81,45.66],[-96.66,45.76],[-96.61,45.8],[-96.59,45.84],[-96.56,45.94]],[[-91.25,43.5],[-91.58,43.5],[-91.9,43.5],[-92.23,43.5],[-92.55,43.5],[-92.88,43.5],[-93.2,43.5],[-93.53,43.5],[-93.85,43.5],[-94.18,43.5],[-94.5,43.5],[-94.83,43.5],[-95.15,43.5],[-95.48,43.5],[-95.8,43.5],[-96.13,43.5],[-96.45,43.5]],[[-84.8,41.7],[-84.46,41.71],[-84.13,41.72],[-83.8,41.73],[-83.46,41.74],[-83.3,41.84],[-83.12,41.95]],[[-89.96,47.29],[-89.84,47.46],[-89.73,47.64],[-89.61,47.82],[-89.5,48]],[[-87.22,41.76],[-87.18,41.94],[-87.13,42.13],[-87.08,42.31],[-87.04,42.49]],[[-90.65,42.51],[-90.19,42.51],[-89.74,42.51],[-89.29,42.51],[-88.84,42.5],[-88.39,42.5],[-87.94,42.5],[-87.49,42.5],[-87.04,42.49]],[[-84.82,39.09],[-84.82,39.42],[-84.82,39.75],[-84.81,40.07],[-84.81,40.4],[-84.81,40.73],[-84.8,41.05],[-84.8,41.38],[-84.8,41.7]],[[-87.22,41.76],[-86.92,41.76],[-86.62,41.76],[-86.31,41.76],[-86.01,41.76],[-85.71,41.76],[-85.4,41.76],[-85.1,41.76],[-84.8,41.76],[-84.8,41.7]],[[-87.04,42.49],[-87.08,42.78],[-87.11,43.03],[-87.16,43.33],[-87.15,43.57],[-87.14,43.66],[-87.08,43.89],[-87.03,44.09],[-86.92,44.36],[-86.82,44.59],[-86.71,44.85],[-86.54,45.04],[-86.4,45.13],[-86.26,45.23],[-86.48,45.32],[-86.77,45.45],[-86.94,45.45],[-87.12,45.45],[-87.24,45.29],[-87.42,45.18],[-87.46,45.07],[-87.65,45.12],[-87.69,45.16],[-87.72,45.2],[-87.72,45.24],[-87.66,45.35],[-87.66,45.36],[-87.66,45.37],[-87.7,45.38],[-87.77,45.36],[-87.84,45.36],[-87.87,45.37],[-87.87,45.39],[-87.87,45.41],[-87.86,45.45],[-87.82,45.51],[-87.81,45.56],[-87.79,45.6],[-87.81,45.66],[-87.81,45.69],[-87.84,45.72],[-87.92,45.76],[-88.12,45.82],[-88.1,45.88],[-88.1,45.91],[-88.15,45.95],[-88.35,45.99],[-88.49,46.01],[-88.63,46.01],[-88.73,46.03],[-88.84,46.04],[-88.91,46.06],[-88.98,46.09],[-89.05,46.12],[-89.12,46.15],[-89.24,46.17],[-89.37,46.2],[-89.49,46.22],[-89.62,46.25],[-89.74,46.27],[-89.87,46.29],[-89.99,46.32],[-90.12,46.34],[-90.15,46.38],[-90.17,46.43],[-90.2,46.47],[-90.23,46.51],[-90.29,46.53],[-90.32,46.54],[-90.34,46.56],[-90.39,46.55],[-90.41,46.59],[-90.36,46.67],[-90.3,46.76],[-90.24,46.85],[-90.19,46.94],[-90.13,47.02],[-90.07,47.11],[-90.01,47.2],[-89.96,47.29]],[[-91.66,31],[-91.42,31],[-91.18,31],[-90.94,31],[-90.7,31],[-90.46,31],[-90.22,31],[-89.98,31],[-89.74,31]],[[-89.49,36.5],[-89.56,36.5]],[[-114.61,34.99],[-114.88,35.2],[-115.14,35.4],[-115.39,35.6],[-115.64,35.8],[-115.9,36],[-116.15,36.19],[-116.41,36.39],[-116.66,36.59],[-116.84,36.73],[-117.03,36.87],[-117.21,37],[-117.39,37.14],[-117.58,37.28],[-117.76,37.42],[-117.94,37.55],[-118.13,37.69],[-118.36,37.86],[-118.59,38.02],[-118.83,38.18],[-119.06,38.35],[-119.3,38.51],[-119.53,38.67],[-119.77,38.84],[-120,39],[-120,39.19],[-120,39.38],[-120,39.56],[-120,39.75],[-120,39.94],[-120,40.13],[-120,40.31],[-120,40.5],[-120,40.69],[-120,40.88],[-120,41.06],[-120,41.25],[-120,41.44],[-120,41.63],[-120,41.81],[-120,42]],[[-67.61,48],[-67.74,48],[-67.91,48],[-68.02,48],[-68.11,48],[-68.11,47.93],[-68.25,47.93],[-68.38,47.93],[-68.38,47.84],[-68.38,47.77],[-68.38,47.69],[-68.38,47.59]],[[-123.82,60],[-124.77,60],[-125.72,60],[-126.67,60],[-127.63,60],[-128.58,60],[-129.53,60],[-130.48,60],[-131.43,60],[-132.38,60],[-133.34,60],[-134.29,60],[-135.24,60],[-136.19,60],[-137.14,60],[-138.1,60],[-139.06,60]],[[-120,60],[-120.48,60],[-120.95,60],[-121.43,60],[-121.91,60],[-122.39,60],[-122.86,60],[-123.34,60],[-123.82,60]],[[-64.03,46.01],[-64.05,45.98],[-64.16,45.96],[-64.22,45.9],[-64.27,45.85],[-64.31,45.84]],[[-64.61,60.31],[-64.82,60.27],[-64.85,60.25],[-64.85,60.24],[-64.79,60.2],[-64.64,60.16],[-64.62,60.14],[-64.65,60.11],[-64.71,60.09],[-64.78,60.06],[-64.88,60.05],[-64.89,60.04],[-64.87,60.01],[-64.83,59.99],[-64.68,59.94],[-64.67,59.93],[-64.66,59.92],[-64.67,59.91],[-64.76,59.86],[-64.79,59.82],[-64.82,59.54],[-64.78,59.49],[-64.71,59.47],[-64.44,59.53],[-64.39,59.51],[-64.38,59.48],[-64.43,59.46],[-64.5,59.4],[-64.52,59.36],[-64.52,59.23],[-64.51,59.17],[-64.48,59.12],[-64.44,59.09],[-64.33,59.04],[-64.32,59.02],[-64.36,59],[-64.39,59],[-64.77,59.05],[-64.8,59.04],[-64.83,59.02],[-64.85,58.98],[-64.85,58.95],[-64.81,58.93],[-64.62,58.91],[-64.29,58.87],[-64.24,58.79],[-64.19,58.77],[-64.16,58.77],[-63.99,58.81],[-63.73,58.86],[-63.67,58.85],[-63.59,58.83],[-63.54,58.8],[-63.5,58.77],[-63.5,58.75],[-63.51,58.74],[-63.55,58.73],[-63.96,58.68],[-64.03,58.67],[-64.07,58.64],[-64.08,58.62],[-64.09,58.6],[-64.06,58.55],[-64.04,58.54],[-63.88,58.56],[-63.84,58.51],[-63.84,58.48],[-63.85,58.46],[-64.02,58.4],[-64.1,58.36],[-64.37,58.17],[-64.39,58.14],[-64.4,58.12],[-64.39,58.1],[-64.23,58.02],[-64.13,57.88],[-64.08,57.81],[-64.05,57.79],[-63.99,57.8],[-63.96,57.8],[-63.92,57.78],[-63.87,57.73],[-63.84,57.71],[-63.79,57.71],[-63.72,57.7],[-63.62,57.73],[-63.6,57.72],[-63.6,57.69],[-63.61,57.67],[-63.74,57.58],[-63.76,57.55],[-63.76,57.51],[-63.74,57.4],[-63.8,57.32],[-63.79,57.28],[-63.76,57.24],[-63.76,57.23],[-63.79,57.13],[-63.84,57.08],[-63.88,57.02],[-63.9,56.89],[-63.95,56.86],[-64,56.82],[-64.03,56.79],[-64.1,56.74],[-64.12,56.71],[-64.11,56.69],[-63.95,56.53],[-63.93,56.48],[-63.95,56.44],[-64.05,56.43],[-64.14,56.39],[-64.12,56.33],[-64.12,56.3],[-64.12,56.29],[-64.08,56.28],[-63.91,56.23],[-63.9,56.21],[-63.99,56.14],[-64,56.1],[-63.97,56.09],[-63.89,56.09],[-63.84,56.06],[-63.58,56.03],[-63.56,55.99],[-63.59,55.98],[-63.66,55.95],[-63.7,55.92],[-63.71,55.88],[-63.7,55.86],[-63.52,55.71],[-63.42,55.6],[-63.36,55.56],[-63.3,55.54],[-63.15,55.51],[-63.15,55.48],[-63.16,55.44],[-63.15,55.4],[-63.11,55.34],[-63.16,55.31],[-63.43,55.21],[-63.51,55.17],[-63.53,55.14],[-63.55,55.09],[-63.48,54.99],[-63.48,54.96],[-63.49,54.92],[-63.57,54.78],[-63.66,54.64],[-63.7,54.62],[-63.75,54.61],[-63.91,54.63],[-64.34,54.73],[-64.82,54.73],[-65.12,54.72],[-65.68,54.74],[-65.74,54.77],[-65.8,54.81],[-65.87,54.9],[-65.88,54.91],[-66.08,54.94],[-66.16,54.97],[-66.24,55.01],[-66.62,55.26],[-66.73,55.32],[-66.77,55.33],[-66.8,55.31],[-66.8,55.29],[-66.73,55.21],[-66.72,55.19],[-66.75,55.13],[-66.69,55],[-66.71,54.95],[-66.66,54.85],[-66.65,54.8],[-66.72,54.75],[-66.87,54.78],[-67.17,54.94],[-67.3,55.06],[-67.34,55.07],[-67.41,55.07],[-67.43,55.06],[-67.44,55.04],[-67.42,54.98],[-67.37,54.92],[-67.29,54.83],[-67.2,54.7],[-67.2,54.68],[-67.15,54.65],[-67.15,54.62],[-67.24,54.59],[-67.29,54.52],[-67.31,54.52],[-67.54,54.57],[-67.58,54.57],[-67.6,54.55],[-67.62,54.51],[-67.61,54.45],[-67.58,54.39],[-67.52,54.28],[-67.51,54.25],[-67.51,54.24],[-67.68,54.14],[-67.73,54.1],[-67.76,54.06],[-67.76,54.03],[-67.53,53.84],[-67.47,53.8],[-67.46,53.73],[-67.48,53.64],[-67.47,53.61],[-67.46,53.6],[-67.16,53.54],[-67.13,53.5],[-67.08,53.42],[-67.03,53.39],[-66.98,53.38],[-66.94,53.36],[-66.94,53.33],[-66.97,53.18],[-66.97,53.07],[-67.03,52.98],[-67.05,52.92],[-67.07,52.83],[-67.07,52.75],[-67.03,52.72],[-66.95,52.7],[-66.9,52.69],[-66.86,52.7],[-66.81,52.69],[-66.69,52.73],[-66.67,52.75],[-66.63,52.91],[-66.62,52.93],[-66.52,52.96],[-66.49,53.01],[-66.47,53.02],[-66.43,53.01],[-66.39,52.99],[-66.33,52.93],[-66.3,52.9],[-66.31,52.86],[-66.34,52.84],[-66.36,52.81],[-66.37,52.74],[-66.42,52.69],[-66.43,52.66],[-66.39,52.42],[-66.4,52.4],[-66.46,52.34],[-66.46,52.29],[-66.44,52.23],[-66.41,52.18],[-66.38,52.16],[-66.35,52.15],[-66.33,52.19],[-66.3,52.29],[-66.28,52.3],[-66.15,52.23],[-66.1,52.21],[-66.04,52.11],[-65.98,52.08],[-65.88,52.05],[-65.83,52.05],[-65.81,52.06],[-65.78,52.1],[-65.69,52.09],[-65.63,52.07],[-65.59,52.07],[-65.55,52.09],[-65.47,52.2],[-65.45,52.2],[-65.4,52.2],[-65.27,52.19],[-65.14,52.15],[-65.04,52.11],[-64.93,52.06],[-64.76,51.91],[-64.66,51.85],[-64.63,51.83],[-64.64,51.79],[-64.69,51.76],[-64.7,51.75],[-64.7,51.72],[-64.6,51.6],[-64.51,51.61],[-64.29,51.73],[-64.29,51.77],[-64.33,51.81],[-64.33,51.84],[-64.32,51.93],[-64.27,52.08],[-64.26,52.1],[-64.16,52.15],[-64.13,52.19],[-64.1,52.38],[-64.18,52.55],[-64.19,52.63],[-64.18,52.82],[-64.14,52.85],[-64.01,52.88],[-63.97,52.9],[-63.92,53.07],[-63.91,53.08],[-63.8,53.1],[-63.72,53.11],[-63.67,53.1],[-63.61,53.03],[-63.55,52.96],[-63.55,52.94],[-63.57,52.83],[-63.56,52.8],[-63.55,52.77],[-63.41,52.69],[-63.42,52.67],[-63.52,52.65],[-63.81,52.61],[-63.9,52.59],[-63.96,52.57],[-64.02,52.53],[-64.06,52.49],[-64.07,52.47],[-64.06,52.46],[-63.95,52.43],[-63.94,52.42],[-63.94,52.38],[-63.88,52.34],[-63.77,52.3],[-63.68,52.14],[-63.67,52.09],[-63.66,52.06],[-63.7,52.05],[-63.79,52.05],[-63.79,52.04],[-63.78,52.02],[-63.76,52.01],[-63.61,52],[-63.2,52],[-62.79,52],[-62.39,52],[-61.98,52],[-61.57,52],[-61.17,52],[-60.76,52],[-60.35,52],[-59.95,52],[-59.54,52],[-59.13,52],[-58.73,52],[-58.32,52],[-57.91,52],[-57.51,52],[-57.1,52],[-57.1,51.71],[-57.1,51.44]],[[-102,60],[-102,60.24],[-102,60.48],[-102,60.72],[-102,60.96],[-102,61.2],[-102,61.44],[-102,61.68],[-102,61.93],[-102,62.17],[-102,62.41],[-102,62.65],[-102,62.89],[-102,63.13],[-102.01,63.37],[-102.01,63.61],[-102.01,63.85],[-101.99,64.08],[-102,64.23],[-102.44,64.26],[-102.87,64.3],[-103.31,64.33],[-103.74,64.37],[-104.18,64.4],[-104.61,64.43],[-105.05,64.47],[-105.49,64.5],[-105.92,64.54],[-106.36,64.57],[-106.79,64.61],[-107.23,64.64],[-107.67,64.68],[-108.1,64.71],[-108.54,64.74],[-108.97,64.78],[-109.22,64.81],[-109.52,64.9],[-109.8,65.05],[-110.09,65.2],[-110.38,65.35],[-110.67,65.5],[-111.13,65.5],[-111.59,65.5],[-112.05,65.5],[-112.5,65.5],[-112.76,65.58],[-113.01,65.66],[-113.27,65.74],[-113.53,65.81],[-113.78,65.89],[-114.04,65.97],[-114.29,66.05],[-114.55,66.13],[-114.8,66.21],[-115.06,66.28],[-115.31,66.36],[-115.57,66.44],[-115.82,66.52],[-116.08,66.6],[-116.34,66.67],[-116.59,66.75],[-116.85,66.83],[-117.1,66.91],[-117.36,66.99],[-117.61,67.07],[-117.87,67.14],[-118.12,67.22],[-118.38,67.3],[-118.63,67.38],[-118.89,67.46],[-119.15,67.53],[-119.4,67.61],[-119.66,67.69],[-119.91,67.77],[-120.17,67.85],[-120.42,67.92],[-120.68,68],[-120.68,68.21],[-120.68,68.41],[-120.68,68.62],[-120.68,68.83],[-120.68,69.03],[-120.68,69.24],[-120.68,69.57],[-120.68,69.65],[-120.2,69.65],[-119.72,69.65],[-119.25,69.65],[-118.77,69.65],[-118.29,69.65],[-117.81,69.65],[-117.33,69.65],[-116.86,69.65],[-116.65,69.65],[-116.69,69.7],[-116.82,69.76],[-116.95,69.82],[-117.08,69.89],[-117.06,70],[-116.6,70],[-116.07,70],[-115.54,70],[-115.01,70],[-114.48,70],[-113.96,70],[-113.43,70],[-112.88,70],[-112.88,69.91],[-112.87,69.83],[-112.76,69.83],[-112.65,69.83],[-112.5,69.91],[-112.5,70],[-112.19,70],[-111.88,70],[-111.56,70],[-111.25,70],[-110.94,70],[-110.63,70],[-110.31,70],[-110,70],[-110,70.54],[-110,71.09],[-110,71.63],[-110,72.17],[-110,72.72],[-110,72.98],[-110,73.26],[-110,73.8],[-110,74.34],[-110,74.85],[-110,74.89],[-110,75.43],[-110,75.97],[-110,76.24],[-110,76.48],[-110,76.52],[-110,77.06],[-110,77.6],[-110,77.93],[-110,78.09],[-110,78.15],[-110,78.32],[-110,78.69]],[[-102,60],[-102.5,60],[-103,60],[-103.5,60],[-104,60],[-104.5,60],[-105,60],[-105.5,60],[-106,60],[-106.5,60],[-107,60],[-107.5,60],[-108,60],[-108.5,60],[-109,60],[-109.5,60],[-110,60]],[[-120,60],[-119.38,60],[-118.75,60],[-118.13,60],[-117.5,60],[-116.88,60],[-116.25,60],[-115.63,60],[-115,60],[-114.38,60],[-113.75,60],[-113.13,60],[-112.5,60],[-111.88,60],[-111.25,60],[-110.63,60],[-110,60]],[[-110,60],[-110,59.66],[-110,59.31],[-110,58.97],[-110,58.63],[-110,58.28],[-110,57.94],[-110,57.59],[-110,57.25],[-110,56.91],[-110,56.56],[-110,56.22],[-110,55.87],[-110,55.53],[-110,55.19],[-110,54.84],[-110,54.5],[-110,54.15],[-110,53.81],[-110,53.47],[-110,53.12],[-110,52.78],[-110,52.43],[-110,52.09],[-110,51.75],[-110,51.4],[-110,51.06],[-110,50.71],[-110,50.37],[-110,50.03],[-110,49.68],[-110,49.34],[-110,48.99]],[[-88.95,56.85],[-89.21,56.69],[-89.46,56.54],[-89.72,56.38],[-89.98,56.22],[-90.33,55.99],[-90.68,55.77],[-91.03,55.54],[-91.38,55.32],[-91.68,55.11],[-91.99,54.9],[-92.29,54.69],[-92.6,54.48],[-92.86,54.3],[-93.11,54.11],[-93.37,53.93],[-93.62,53.75],[-94,53.52],[-94.39,53.29],[-94.77,53.05],[-95.15,52.82],[-95.15,52.39],[-95.16,51.96],[-95.16,51.53],[-95.16,51.1],[-95.16,50.67],[-95.16,50.23],[-95.16,49.8],[-95.16,49.37]],[[-102,60],[-101.55,60],[-101.1,60],[-100.65,60],[-100.2,60],[-99.75,60],[-99.3,60],[-98.85,60],[-98.4,60],[-97.95,60],[-97.5,60],[-97.05,60],[-96.6,60],[-96.15,60],[-95.7,60],[-95.25,60],[-94.77,60]],[[-102,60],[-102,59.74],[-102,59.48],[-102,59.22],[-102,58.96],[-102,58.69],[-102,58.43],[-102,58.17],[-102,57.91],[-102,57.65],[-102,57.39],[-102,57.12],[-102,56.86],[-102,56.6],[-102,56.34],[-102,56.08],[-102,55.82],[-101.96,55.39],[-101.92,54.96],[-101.88,54.54],[-101.84,54.11],[-101.8,53.69],[-101.76,53.26],[-101.72,52.83],[-101.68,52.41],[-101.64,51.98],[-101.6,51.55],[-101.56,51.13],[-101.52,50.7],[-101.48,50.27],[-101.44,49.85],[-101.4,49.42],[-101.37,48.99]],[[-116.9,46],[-117.14,46],[-117.41,46],[-117.68,46],[-117.94,46],[-118.21,46],[-118.47,46],[-118.74,46],[-119,46],[-119.02,46],[-119.05,45.98],[-119.18,45.95],[-119.43,45.93],[-119.93,45.84],[-120.16,45.76],[-120.35,45.73],[-120.72,45.69],[-121.05,45.64],[-121.18,45.64],[-121.24,45.69],[-121.4,45.71],[-121.66,45.72],[-121.88,45.69],[-122.09,45.6],[-122.15,45.59],[-122.2,45.59],[-122.56,45.63],[-122.65,45.63],[-122.73,45.67],[-122.75,45.75],[-122.84,45.98],[-122.94,46.11],[-123.04,46.16],[-123.12,46.18],[-123.22,46.15]],[[-116.9,46],[-116.93,46.06],[-116.95,46.12],[-116.92,46.16],[-116.94,46.23],[-117.01,46.33],[-117.04,46.4],[-117.03,46.42],[-117.03,46.43],[-117.03,46.59],[-117.03,46.75],[-117.03,46.91],[-117.03,47.07],[-117.03,47.23],[-117.03,47.39],[-117.03,47.55],[-117.03,47.71],[-117.03,47.87],[-117.03,48.03],[-117.03,48.19],[-117.03,48.35],[-117.04,48.51],[-117.04,48.67],[-117.04,48.83],[-117.04,48.99]],[[-117.02,42],[-117.02,42.22],[-117.02,42.45],[-117.02,42.67],[-117.02,42.89],[-117.02,43.12],[-117.02,43.34],[-117.02,43.56],[-117.02,43.81],[-116.96,43.96],[-116.94,44.04],[-116.96,44.08],[-116.95,44.12],[-116.91,44.16],[-116.91,44.2],[-116.95,44.25],[-117.03,44.28],[-117.14,44.29],[-117.2,44.34],[-117.2,44.44],[-117.12,44.58],[-116.95,44.77],[-116.86,44.91],[-116.84,44.99],[-116.74,45.17],[-116.55,45.46],[-116.48,45.64],[-116.52,45.72],[-116.62,45.8],[-116.76,45.87],[-116.87,45.96],[-116.9,46]],[[-114.61,34.99],[-114.61,34.91],[-114.56,34.79],[-114.4,34.59],[-114.38,34.54],[-114.37,34.49],[-114.31,34.43],[-114.16,34.36],[-114.13,34.32],[-114.13,34.31],[-114.13,34.29],[-114.16,34.25],[-114.33,34.14],[-114.42,34.05],[-114.51,33.9],[-114.5,33.78],[-114.5,33.69],[-114.52,33.61],[-114.56,33.54],[-114.6,33.47],[-114.65,33.43],[-114.7,33.42],[-114.72,33.33],[-114.7,33.17],[-114.65,33.07],[-114.55,33.04],[-114.49,32.98],[-114.47,32.91],[-114.48,32.84],[-114.52,32.77],[-114.58,32.73],[-114.72,32.72]],[[-114.61,34.99],[-114.61,35],[-114.59,35.35],[-114.65,35.48],[-114.66,35.55],[-114.65,35.63],[-114.65,35.68],[-114.68,35.73],[-114.68,35.81],[-114.69,35.92],[-114.73,35.98],[-114.74,36.01],[-114.72,36.08],[-114.67,36.12],[-114.59,36.15],[-114.51,36.16],[-114.41,36.15],[-114.33,36.12],[-114.28,36.06],[-114.23,36.03],[-114.18,36.03],[-114.12,36.08],[-114.06,36.18],[-114.04,36.18],[-114.04,36.61],[-114.04,37]],[[-103,36.5],[-103.04,36.5],[-103.04,36.22],[-103.05,35.94],[-103.05,35.66],[-103.05,35.38],[-103.05,35.1],[-103.05,34.81],[-103.05,34.53],[-103.05,34.25],[-103.06,33.97],[-103.06,33.69],[-103.06,33.41],[-103.06,33.13],[-103.06,32.85],[-103.06,32.56],[-103.06,32.28],[-103.07,32],[-103.29,32],[-103.52,32],[-103.74,32],[-103.96,32],[-104.19,32],[-104.41,32],[-104.64,32],[-104.86,32],[-105.09,32],[-105.31,32],[-105.54,32],[-105.76,32],[-105.99,32],[-106.21,32],[-106.44,32],[-106.66,32],[-106.67,32],[-106.57,31.82],[-106.45,31.77]],[[-95.35,40],[-95.12,39.87],[-95.06,39.87],[-94.98,39.89],[-94.93,39.86],[-94.89,39.78],[-94.9,39.74],[-94.95,39.74],[-95,39.69],[-95.08,39.6],[-95.06,39.51],[-94.95,39.43],[-94.88,39.34],[-94.85,39.26],[-94.78,39.19],[-94.62,39.12]],[[-95.77,40.6],[-95.74,40.57],[-95.68,40.47],[-95.66,40.36],[-95.61,40.3],[-95.52,40.26],[-95.46,40.2],[-95.43,40.1],[-95.36,40.01],[-95.35,40]],[[-96.48,42.51],[-96.45,42.51],[-96.38,42.42],[-96.36,42.26],[-96.3,42.13],[-96.2,42.04],[-96.15,41.97],[-96.15,41.92],[-96.13,41.87],[-96.09,41.82],[-96.07,41.73],[-96.08,41.61],[-96.06,41.55],[-96.01,41.54],[-95.99,41.52],[-96,41.49],[-95.98,41.47],[-95.94,41.46],[-95.93,41.43],[-95.95,41.37],[-95.94,41.33],[-95.89,41.32],[-95.88,41.29],[-95.91,41.25],[-95.91,41.21],[-95.87,41.19],[-95.85,41.08],[-95.83,40.89],[-95.84,40.78],[-95.86,40.75],[-95.83,40.68],[-95.77,40.6]],[[-96.48,42.51],[-96.56,42.52],[-96.63,42.57],[-96.68,42.64],[-96.8,42.7],[-97.02,42.76],[-97.16,42.81],[-97.24,42.86],[-97.42,42.88],[-97.7,42.87],[-97.88,42.85],[-97.96,42.81],[-98.14,42.85],[-98.44,43],[-98.84,43],[-99.18,43],[-99.53,43],[-99.88,43],[-100.22,43],[-100.57,43],[-100.91,43],[-101.26,43],[-101.61,43],[-101.95,43],[-102.3,43],[-102.64,43],[-102.99,43],[-103.34,43],[-103.68,43],[-104.03,43]],[[-91.15,33.02],[-91.14,32.97],[-91.1,32.94],[-91.09,32.89],[-91.14,32.81],[-91.14,32.76],[-91.09,32.73],[-91.09,32.69],[-91.14,32.66],[-91.15,32.63],[-91.12,32.59],[-91.1,32.54],[-91.1,32.49],[-91.06,32.42],[-90.99,32.38],[-90.94,32.33],[-90.94,32.3],[-90.94,32.28],[-90.95,32.24],[-91,32.19],[-91.05,32.15],[-91.07,32.13],[-91.09,32.1],[-91.09,32.05],[-91.16,31.97],[-91.29,31.88],[-91.37,31.77],[-91.41,31.64],[-91.46,31.55],[-91.51,31.52],[-91.53,31.45],[-91.53,31.35],[-91.56,31.29],[-91.62,31.28],[-91.63,31.22],[-91.6,31.11],[-91.61,31.06],[-91.65,31.03],[-91.66,31]],[[-90.29,35],[-90.29,34.97],[-90.28,34.95],[-90.32,34.9],[-90.42,34.85],[-90.47,34.81],[-90.47,34.76],[-90.5,34.74],[-90.54,34.73],[-90.56,34.66],[-90.58,34.5],[-90.64,34.41],[-90.72,34.39],[-90.76,34.36],[-90.77,34.31],[-90.82,34.25],[-90.91,34.19],[-90.94,34.13],[-90.91,34.07],[-90.91,34.05],[-90.94,34.03],[-91.04,34],[-91.06,33.99],[-91.07,33.97],[-91.05,33.95],[-91.04,33.9],[-91.05,33.83],[-91.08,33.8],[-91.1,33.77],[-91.18,33.72],[-91.21,33.68],[-91.17,33.65],[-91.17,33.62],[-91.21,33.58],[-91.2,33.55],[-91.19,33.52],[-91.15,33.5],[-91.14,33.44],[-91.17,33.36],[-91.16,33.29],[-91.12,33.24],[-91.11,33.22],[-91.15,33.04],[-91.15,33.02]],[[-89.7,36],[-89.71,35.98],[-89.69,35.94],[-89.69,35.92],[-89.7,35.91],[-89.74,35.9],[-89.76,35.89],[-89.77,35.87],[-89.77,35.86],[-89.77,35.85],[-89.76,35.83],[-89.78,35.81],[-89.89,35.75],[-89.94,35.68],[-89.93,35.59],[-89.97,35.5],[-90.07,35.41],[-90.11,35.31],[-90.09,35.2],[-90.14,35.11],[-90.26,35.05],[-90.29,35]],[[-89.56,36.5],[-89.54,36.43],[-89.56,36.37],[-89.6,36.35],[-89.61,36.32],[-89.58,36.29],[-89.58,36.27],[-89.59,36.26],[-89.63,36.26],[-89.65,36.25],[-89.67,36.22],[-89.63,36.17],[-89.64,36.1],[-89.7,36.03],[-89.7,36]],[[-89.49,36.5],[-89.5,36.53],[-89.52,36.55],[-89.54,36.56],[-89.55,36.55],[-89.56,36.54],[-89.56,36.51],[-89.56,36.5]],[[-89.45,36.5],[-89.47,36.49],[-89.49,36.5]],[[-89.15,36.99],[-89.12,36.91],[-89.13,36.81],[-89.16,36.72],[-89.2,36.63],[-89.26,36.59],[-89.28,36.6],[-89.33,36.62],[-89.35,36.61],[-89.4,36.59],[-89.45,36.5]],[[-91.44,40.38],[-91.5,40.23],[-91.5,40.1],[-91.47,39.94],[-91.43,39.83],[-91.38,39.75],[-91.21,39.6],[-90.92,39.39],[-90.74,39.18],[-90.66,38.99],[-90.58,38.91],[-90.48,38.95],[-90.35,38.93],[-90.22,38.9],[-90.15,38.86],[-90.13,38.85],[-90.13,38.83],[-90.13,38.82],[-90.15,38.78],[-90.32,38.46],[-90.37,38.31],[-90.37,38.25],[-90.3,38.17],[-90.17,38.07],[-90.06,38],[-89.97,37.97],[-89.82,37.88],[-89.62,37.75],[-89.52,37.64],[-89.52,37.58],[-89.5,37.51],[-89.46,37.43],[-89.46,37.37],[-89.5,37.3],[-89.49,37.21],[-89.41,37.1],[-89.35,37.04],[-89.3,37.01],[-89.29,37.01],[-89.29,37.02],[-89.29,37.04],[-89.3,37.05],[-89.29,37.07],[-89.28,37.08],[-89.27,37.08],[-89.22,37.05],[-89.15,36.99]],[[-90.65,42.51],[-90.59,42.44],[-90.48,42.38],[-90.43,42.33],[-90.41,42.27],[-90.35,42.21],[-90.23,42.15],[-90.17,42.1],[-90.15,42.05],[-90.15,41.98],[-90.18,41.88],[-90.22,41.81],[-90.28,41.77],[-90.32,41.71],[-90.35,41.63],[-90.44,41.56],[-90.59,41.49],[-90.75,41.45],[-90.94,41.43],[-91.05,41.37],[-91.08,41.28],[-91.07,41.21],[-91,41.15],[-90.96,41.08],[-90.95,41.02],[-91,40.9],[-91.1,40.75],[-91.22,40.65],[-91.34,40.6],[-91.39,40.54],[-91.38,40.45],[-91.39,40.4],[-91.44,40.38]],[[-91.25,43.5],[-91.24,43.44],[-91.22,43.4],[-91.18,43.36],[-91.12,43.33],[-91.11,43.28],[-91.15,43.2],[-91.16,43.1],[-91.15,42.99],[-91.12,42.88],[-91.07,42.79],[-90.96,42.72],[-90.79,42.68],[-90.69,42.61],[-90.66,42.52],[-90.65,42.51]],[[-91.25,43.5],[-91.28,43.8],[-91.32,43.94],[-91.38,43.99],[-91.51,44.05],[-91.72,44.13],[-91.84,44.19],[-91.91,44.29],[-92.06,44.4],[-92.15,44.45],[-92.24,44.46],[-92.31,44.5],[-92.37,44.55],[-92.44,44.59],[-92.54,44.6],[-92.64,44.65],[-92.77,44.73],[-92.8,44.79],[-92.78,44.82],[-92.76,44.93],[-92.77,44.97],[-92.79,45.07],[-92.76,45.11],[-92.77,45.24],[-92.75,45.28],[-92.69,45.38],[-92.68,45.43],[-92.71,45.49],[-92.76,45.54],[-92.89,45.59],[-92.9,45.66],[-92.87,45.71],[-92.79,45.8],[-92.74,45.87],[-92.69,45.91],[-92.42,46.03],[-92.37,46.04],[-92.33,46.07],[-92.29,46.08],[-92.29,46.23],[-92.29,46.37],[-92.29,46.52],[-92.29,46.66],[-92.22,46.67],[-92.19,46.71],[-92.13,46.76],[-92.09,46.76],[-91.96,46.73],[-91.84,46.78],[-91.72,46.83],[-91.59,46.88],[-91.47,46.93],[-91.26,47.02],[-91.06,47.12],[-90.86,47.21],[-90.65,47.31],[-90.48,47.3],[-90.31,47.3],[-90.13,47.29],[-89.96,47.29]],[[-88.04,37.79],[-88.07,37.77],[-88.13,37.7],[-88.14,37.62],[-88.11,37.53],[-88.19,37.46],[-88.39,37.41],[-88.49,37.36],[-88.51,37.32],[-88.49,37.26],[-88.45,37.18],[-88.45,37.12],[-88.47,37.09],[-88.61,37.11],[-88.87,37.19],[-89.05,37.18],[-89.13,37.1],[-89.17,37.04],[-89.15,36.99]],[[-84.82,39.09],[-84.84,39.08],[-84.86,39.04],[-84.84,39],[-84.84,38.96],[-84.86,38.93],[-84.85,38.91],[-84.81,38.9],[-84.79,38.87],[-84.8,38.82],[-84.9,38.77],[-85.09,38.71],[-85.14,38.7],[-85.17,38.69],[-85.19,38.69],[-85.21,38.7],[-85.25,38.73],[-85.31,38.74],[-85.41,38.73],[-85.44,38.68],[-85.42,38.6],[-85.46,38.53],[-85.55,38.48],[-85.61,38.42],[-85.65,38.35],[-85.71,38.3],[-85.79,38.29],[-85.85,38.22],[-85.91,38.09],[-85.96,38.01],[-86.02,37.98],[-86.1,37.99],[-86.21,38.04],[-86.27,38.08],[-86.28,38.13],[-86.31,38.16],[-86.34,38.18],[-86.36,38.18],[-86.36,38.17],[-86.35,38.16],[-86.37,38.14],[-86.43,38.14],[-86.46,38.12],[-86.45,38.09],[-86.46,38.06],[-86.5,38.05],[-86.52,38.01],[-86.52,37.96],[-86.55,37.92],[-86.6,37.87],[-86.67,37.89],[-86.77,37.96],[-86.87,37.98],[-86.97,37.94],[-87.04,37.89],[-87.09,37.82],[-87.14,37.81],[-87.21,37.85],[-87.37,37.92],[-87.46,37.94],[-87.52,37.92],[-87.56,37.93],[-87.58,37.95],[-87.59,37.96],[-87.6,37.95],[-87.6,37.89],[-87.62,37.85],[-87.64,37.83],[-87.66,37.85],[-87.68,37.89],[-87.71,37.9],[-87.77,37.89],[-87.83,37.89],[-87.87,37.92],[-87.89,37.91],[-87.91,37.9],[-87.9,37.86],[-87.91,37.82],[-87.94,37.79],[-87.97,37.79],[-88.02,37.8],[-88.04,37.79]],[[-82.61,38.45],[-82.62,38.45],[-82.76,38.54],[-82.84,38.63],[-82.88,38.71],[-83,38.71],[-83.2,38.64],[-83.36,38.63],[-83.46,38.68],[-83.54,38.7],[-83.62,38.68],[-83.69,38.65],[-83.75,38.67],[-83.83,38.73],[-83.95,38.77],[-84.11,38.8],[-84.23,38.87],[-84.29,38.97],[-84.36,39.05],[-84.43,39.09],[-84.51,39.1],[-84.59,39.09],[-84.66,39.09],[-84.71,39.13],[-84.77,39.12],[-84.82,39.09]],[[-80.52,40.65],[-80.64,40.6],[-80.66,40.56],[-80.62,40.51],[-80.6,40.45],[-80.6,40.36],[-80.67,40.19],[-80.8,39.91],[-80.87,39.74],[-80.87,39.66],[-80.96,39.57],[-81.14,39.46],[-81.26,39.39],[-81.33,39.36],[-81.39,39.36],[-81.44,39.39],[-81.49,39.37],[-81.55,39.31],[-81.61,39.27],[-81.66,39.27],[-81.7,39.23],[-81.74,39.15],[-81.77,39.1],[-81.8,39.09],[-81.8,39.04],[-81.78,38.97],[-81.78,38.95],[-81.8,38.95],[-81.81,38.95],[-81.84,38.93],[-81.88,38.89],[-81.9,38.89],[-81.91,38.9],[-81.92,38.95],[-81.95,38.99],[-82,39.01],[-82.07,38.96],[-82.16,38.84],[-82.2,38.77],[-82.19,38.72],[-82.18,38.64],[-82.2,38.61],[-82.25,38.59],[-82.29,38.55],[-82.32,38.48],[-82.39,38.43],[-82.5,38.41],[-82.61,38.45]],[[-88.04,37.79],[-88.1,37.88],[-88.09,37.9],[-88.06,37.9],[-88.04,37.94],[-88.04,38.01],[-88.03,38.06],[-88,38.07],[-87.99,38.09],[-88.01,38.1],[-88.01,38.11],[-87.96,38.14],[-87.95,38.18],[-87.98,38.21],[-87.98,38.25],[-87.96,38.28],[-87.92,38.3],[-87.87,38.3],[-87.83,38.34],[-87.78,38.42],[-87.74,38.47],[-87.68,38.49],[-87.64,38.54],[-87.58,38.68],[-87.53,38.74],[-87.52,38.81],[-87.53,38.91],[-87.57,39.01],[-87.63,39.11],[-87.65,39.17],[-87.61,39.19],[-87.6,39.23],[-87.61,39.29],[-87.58,39.34],[-87.53,39.37],[-87.53,39.38],[-87.53,39.66],[-87.53,39.96],[-87.53,40.26],[-87.53,40.56],[-87.53,40.86],[-87.52,41.16],[-87.52,41.46],[-87.52,41.76],[-87.37,41.76],[-87.22,41.76]],[[-88.17,35],[-88.08,34.93],[-88.09,34.91],[-88.09,34.89],[-88.1,34.85],[-88.12,34.66],[-88.14,34.48],[-88.17,34.29],[-88.19,34.11],[-88.22,33.92],[-88.24,33.74],[-88.27,33.55],[-88.29,33.37],[-88.32,33.18],[-88.34,33],[-88.36,32.81],[-88.39,32.63],[-88.41,32.44],[-88.44,32.26],[-88.46,32.08],[-88.49,31.89],[-88.48,31.7],[-88.47,31.52],[-88.45,31.33],[-88.44,31.14],[-88.43,30.95],[-88.42,30.76],[-88.41,30.58],[-88.4,30.37]],[[-85.62,35],[-85.78,35],[-85.94,35],[-86.1,35.01],[-86.27,35.01],[-86.43,35.01],[-86.59,35.01],[-86.75,35.01],[-86.91,35.01],[-87.07,35.01],[-87.23,35.02],[-87.39,35.02],[-87.55,35.02],[-87.71,35.02],[-87.87,35.02],[-88.03,35.02],[-88.19,35.02],[-88.2,35.02],[-88.19,35.01],[-88.17,35]],[[-83.67,36.61],[-83.68,36.6],[-83.69,36.6],[-83.7,36.6],[-83.71,36.59],[-83.72,36.59],[-83.73,36.59],[-84.08,36.6],[-84.42,36.61],[-84.77,36.62],[-85.12,36.63],[-85.47,36.64],[-85.81,36.65],[-86.16,36.66],[-86.51,36.66],[-86.84,36.66],[-87.17,36.65],[-87.51,36.65],[-87.84,36.64],[-87.87,36.68],[-87.96,36.68],[-88.09,36.69],[-88.1,36.69],[-88.06,36.59],[-88.06,36.5],[-88.22,36.5],[-88.39,36.5],[-88.56,36.5],[-88.73,36.5],[-88.91,36.5],[-89.08,36.5],[-89.25,36.5],[-89.45,36.5]],[[-81.66,36.61],[-81.8,36.62],[-81.91,36.62],[-81.95,36.6],[-82.16,36.6],[-82.33,36.6],[-82.61,36.6],[-82.96,36.6],[-83.44,36.6],[-83.67,36.61]],[[-75.86,36.55],[-75.89,36.55],[-75.97,36.55],[-76.21,36.55],[-76.58,36.56],[-76.94,36.56],[-77.3,36.56],[-77.66,36.56],[-78.02,36.57],[-78.39,36.57],[-78.75,36.57],[-79.11,36.58],[-79.47,36.58],[-79.83,36.58],[-80.19,36.58],[-80.56,36.59],[-80.92,36.59],[-81.28,36.59],[-81.64,36.6],[-81.66,36.61]],[[-85.01,31],[-84.97,30.92],[-84.89,30.76],[-84.88,30.72],[-84.79,30.72],[-84.63,30.71],[-84.47,30.7],[-84.31,30.69],[-84.15,30.68],[-83.99,30.67],[-83.83,30.66],[-83.67,30.65],[-83.52,30.64],[-83.36,30.63],[-83.2,30.62],[-83.04,30.61],[-82.88,30.6],[-82.72,30.59],[-82.56,30.58],[-82.4,30.58],[-82.24,30.57],[-82.24,30.53],[-82.21,30.48],[-82.21,30.42],[-82.19,30.39],[-82.16,30.38],[-82.11,30.37],[-82.06,30.4],[-82.03,30.48],[-82.02,30.56],[-82.04,30.65],[-82.04,30.73],[-82.01,30.78],[-81.98,30.79],[-81.96,30.81],[-81.94,30.82],[-81.88,30.81],[-81.67,30.74],[-81.5,30.73]],[[-85.01,31],[-85.07,31.12],[-85.09,31.3],[-85.05,31.57],[-85.07,31.64],[-85.12,31.78],[-85.12,31.88],[-85.06,32.05],[-85.03,32.15],[-84.99,32.2],[-84.93,32.25],[-84.92,32.29],[-84.97,32.32],[-84.99,32.36],[-84.97,32.41],[-85.02,32.53],[-85.16,32.8],[-85.18,32.9],[-85.2,32.96],[-85.23,33.08],[-85.25,33.21],[-85.28,33.34],[-85.31,33.47],[-85.33,33.6],[-85.36,33.72],[-85.39,33.85],[-85.41,33.98],[-85.44,34.11],[-85.47,34.23],[-85.49,34.36],[-85.52,34.49],[-85.54,34.62],[-85.57,34.75],[-85.6,34.87],[-85.62,35]],[[-83.11,35],[-83.12,35],[-83.17,34.93],[-83.32,34.81],[-83.36,34.71],[-83.17,34.6],[-83.05,34.51],[-82.98,34.48],[-82.9,34.47],[-82.85,34.44],[-82.82,34.37],[-82.59,34.02],[-82.35,33.84],[-82.26,33.75],[-82.21,33.66],[-82.01,33.52],[-81.94,33.45],[-81.93,33.39],[-81.91,33.35],[-81.86,33.33],[-81.82,33.27],[-81.78,33.2],[-81.7,33.13],[-81.58,33.07],[-81.49,32.94],[-81.43,32.73],[-81.38,32.61],[-81.29,32.56],[-81.17,32.38],[-81.13,32.27],[-81.14,32.18],[-81.07,32.11],[-80.87,32.03]],[[-77.12,38.94],[-77.1,38.94],[-77.05,38.92],[-77.03,38.89],[-77.02,38.81]],[[-77.73,39.35],[-77.67,39.31],[-77.53,39.27],[-77.48,39.22],[-77.5,39.18],[-77.51,39.14],[-77.48,39.11],[-77.3,39.05],[-77.19,38.97],[-77.12,38.94]],[[-79.49,39.21],[-79.36,39.29],[-79.29,39.31],[-79.08,39.48],[-79.05,39.48],[-78.97,39.45],[-78.81,39.57],[-78.8,39.61],[-78.78,39.63],[-78.76,39.62],[-78.75,39.61],[-78.75,39.59],[-78.74,39.58],[-78.68,39.55],[-78.59,39.53],[-78.57,39.53],[-78.5,39.53],[-78.46,39.56],[-78.44,39.6],[-78.41,39.63],[-78.33,39.64],[-78.18,39.69],[-78.1,39.68],[-78.03,39.63],[-77.96,39.61],[-77.88,39.61],[-77.86,39.6],[-77.87,39.58],[-77.85,39.55],[-77.8,39.52],[-77.78,39.49],[-77.8,39.46],[-77.79,39.44],[-77.76,39.43],[-77.74,39.4],[-77.74,39.35],[-77.73,39.35]],[[-79.52,51.54],[-79.52,51.23],[-79.52,50.97],[-79.52,50.92],[-79.52,50.74],[-79.52,50.5],[-79.52,50.26],[-79.52,50.02],[-79.52,49.77],[-79.52,49.53],[-79.52,49.29],[-79.52,49.05],[-79.52,48.81],[-79.51,48.57],[-79.51,48.32],[-79.51,48.08],[-79.51,47.84],[-79.51,47.56],[-79.51,47.55],[-79.56,47.48],[-79.55,47.41],[-79.48,47.32],[-79.44,47.23],[-79.43,47.13],[-79.36,47.02],[-79.17,46.83],[-79.01,46.61],[-78.9,46.49],[-78.78,46.39],[-78.46,46.31],[-77.68,46.19],[-77.37,46.06],[-77.29,45.98],[-77.28,45.96],[-77.27,45.93],[-77.23,45.9],[-77.1,45.83],[-77.03,45.81],[-76.98,45.8],[-76.94,45.8],[-76.93,45.82],[-76.91,45.88],[-76.89,45.89],[-76.87,45.89],[-76.82,45.88],[-76.75,45.8],[-76.67,45.64],[-76.55,45.54],[-76.41,45.5],[-76.27,45.48],[-76.12,45.5],[-76,45.48],[-75.9,45.42],[-75.63,45.45],[-75.17,45.58],[-74.86,45.64],[-74.72,45.65],[-74.58,45.63],[-74.4,45.57],[-74.42,45.51],[-74.45,45.39],[-74.48,45.32],[-74.41,45.27],[-74.34,45.21]]]}}]}